store_name,address,city,state,postal_code,store_number,phone_number,lat,long,amenities
101 South Tryon,"101 S. Tryon Street, Charlotte",Charlotte,NC,28280,8393-21301,+1 704-374-9519,35.22657,-80.84324,"In Store,Mobile Order and Pay,Nitro Cold Brew,Oven-warmed Food,Redeem Rewards,Starbucks Wi-Fi"
"Tryon & Trade, Independence Ce","101 N. Tryon St, Charlotte",Charlotte,NC,28246,65517-299457,+1 704-312-8701,35.22769,-80.84275,"In Store,Mobile Order and Pay,Nitro Cold Brew,Oven-warmed Food,Redeem Rewards,Starbucks Wi-Fi"
Grand Bohemian Charlotte,"201 West Trade Street, Charlotte",Charlotte,NC,28202,57996-286250,+1 704-372-1877,35.22825,-80.8442,"Blonde Espresso,Café Seating,Mobile Order and Pay,Nitro Cold Brew,Oven-warmed Food,Redeem Rewards,Starbucks Wi-Fi"
Duke Energy Center,"135 Levine Avenue of the Arts, Charlotte",Charlotte,NC,28202,19547-192464,+1 704-372-6114,35.2249,-80.84854,"In Store,Mobile Order and Pay,Nitro Cold Brew,Oven-warmed Food,Redeem Rewards,Starbucks Wi-Fi"
Charlotte Convention Center,"501 S College St, Charlotte",Charlotte,NC,28202,75310-96262,+1 704-339-6046,35.2221,-80.84532,"Blonde Espresso,Mobile Order and Pay,Redeem Rewards"
"Pickup - 601 Tryon, Ally CLT C","601 South Tryon street, Charlotte",Charlotte,NC,28202,63944-297743,+1 980-710-6003,35.22268,-80.84863,"In Store,Mobile Order and Pay,Nitro Cold Brew,Oven-warmed Food,Redeem Rewards,Starbucks Wi-Fi"
Brooklyn Village Ave & South,"610 S. Caldwell Street, Charlotte",Charlotte,NC,28202,54780-288412,+1 980-279-6906,35.22028,-80.84547,"In Store,Mobile Order and Pay,Nitro Cold Brew,Oven-warmed Food,Starbucks Wi-Fi"
Gateway Village,"800 W Trade St, Charlotte",Charlotte,NC,28202,8460-19165,+1 704-333-4077,35.23367,-80.85051,"In Store,Mobile Order and Pay,Nitro Cold Brew,Oven-warmed Food,Redeem Rewards,Starbucks Wi-Fi"
Target Charlotte Midtown 2244,"900 Metropolitan Ave, Charlotte",Charlotte,NC,28204,76840-111225,+1 704-973-3121,35.21505,-80.83331,"Blonde Espresso,In Store,Nitro Cold Brew,Oven-warmed Food,Redeem Rewards,Wireless Hot-Spot"
Carolinas Medical Kiosk,"1025 Morehead Medical Drive, Charlotte",Charlotte,NC,28204,11638-105036,+1 704-375-2406,35.20591,-80.83884,"In Store,Mobile Order and Pay,Nitro Cold Brew,Oven-warmed Food,Redeem Rewards,Starbucks Wi-Fi"
"1901 N.Tryon, North End","1901 N.Tryon, Charlotte",Charlotte,NC,28206,77718-302026,+1 704-243-9302,35.24264,-80.82329,"Café Seating,Drive-Thru,In Store,Mobile Order and Pay,Nitro Cold Brew,Outdoor Seating,Oven-warmed Food,Redeem Rewards,Starbucks Wi-Fi"
Harris Teeter Charlotte 61,"1227 East Blvd., Charlotte",Charlotte,NC,28203,67502-100609,+1 704-375-5071,35.20359,-80.8449,"Blonde Espresso,In Store,Mobile Order and Pay,Nitro Cold Brew,Oven-warmed Food,Redeem Rewards"
7th Street,"1961 East 7th Street, Charlotte",Charlotte,NC,28204,8211-819,+1 704-333-5880,35.21247,-80.8179,"In Store,Mobile Order and Pay,Nitro Cold Brew,Oven-warmed Food,Redeem Rewards,Starbucks Wi-Fi"
East Blvd,"1401 East Boulevard, Charlotte",Charlotte,NC,28203,8288-1929,+1 704-338-9911,35.20134,-80.84336,"In Store,Mobile Order and Pay,Nitro Cold Brew,Oven-warmed Food,Redeem Rewards,Starbucks Wi-Fi"
Publix Charlotte 1453,"2222 SOUTH BLVD, Charlotte",Charlotte,NC,28203,49409-266016,+1 704-373-2122,35.20634,-80.86225,"In Store,Oven-warmed Food,Wireless Hot-Spot"
Harris Teeter Charlotte 401,"1704 Central Ave, Charlotte",Charlotte,NC,28205,19257-182669,+1 704-375-8491,35.22025,-80.81068,"In Store,Mobile Order and Pay,Oven-warmed Food,Redeem Rewards,Wireless Hot-Spot"
Providence Road,"545 Providence Rd., Charlotte",Charlotte,NC,28207,8210-824,+1 704-372-1591,35.2021,-80.82453,"In Store,Mobile Order and Pay,Nitro Cold Brew,Oven-warmed Food,Redeem Rewards,Starbucks Wi-Fi"
Harris Teeter Charlotte 305,"2717 South Blvd, Charlotte",Charlotte,NC,28209,52425-274266,+1 704-527-1018,35.20079,-80.86597,"Blonde Espresso,In Store,Mobile Order and Pay,Oven-warmed Food,Redeem Rewards"
Harris Teeter Charlotte 412,"1015 Providence Rd, Charlotte",Charlotte,NC,28207,19543-159188,+1 704-338-9100,35.19528,-80.82662,"In Store,Mobile Order and Pay,Oven-warmed Food,Redeem Rewards"
I-85 & Brookshire Blvd,"4019 Brookshire Blvd, charlotte",charlotte,NC,28216,62268-296863,+1 704-748-0519,35.26524,-80.88178,"Drive-Thru,In Store,Mobile Order and Pay,Nitro Cold Brew,Oven-warmed Food,Redeem Rewards,Starbucks Wi-Fi"
Park Towne Village,"4425 Park Road, Charlotte",Charlotte,NC,28209,2971-79140,+1 704-527-2463,35.17127,-80.85069,"In Store,Mobile Order and Pay,Nitro Cold Brew,Oven-warmed Food,Redeem Rewards,Starbucks Wi-Fi"
Cotswold Village Shops,"4450 Randolph Rd. Ste 100, Charlotte",Charlotte,NC,28211,8240-103436,+1 704-442-0333,35.17703,-80.79936,"In Store,Mobile Order and Pay,Nitro Cold Brew,Oven-warmed Food,Redeem Rewards,Starbucks Wi-Fi"
Independence & Wilshire,"3935 E. Independence Blvd, Charlotte",Charlotte,NC,28205,66950-300715,+1 704-686-7077,35.20107,-80.77368,"Drive-Thru,In Store,Mobile Order and Pay,Nitro Cold Brew,Oven-warmed Food,Redeem Rewards,Starbucks Wi-Fi"
I-77 & Tyvola,"436 Tyvola Road, charlotte",charlotte,NC,28217,65308-299614,+1 704-981-2308,35.16292,-80.88644,"Drive-Thru,In Store,Mobile Order and Pay,Nitro Cold Brew,Oven-warmed Food,Redeem Rewards,Starbucks Wi-Fi"
Tyvola and City Park,"3320 Potomac River Parkway, Charlotte",Charlotte,NC,28217,51440-274405,+1 704-561-2509,35.18152,-80.91567,"Drive-Thru,In Store,Mobile Order and Pay,Nitro Cold Brew,Oven-warmed Food,Redeem Rewards,Starbucks Wi-Fi"
Morrocroft Village - HT,"6701 Morrison Blvd., Charlotte",Charlotte,NC,28211,8216-45,+1 704-365-5194,35.15323,-80.82553,"In Store,Mobile Order and Pay,Nitro Cold Brew,Oven-warmed Food,Redeem Rewards,Starbucks Wi-Fi"
CLT E Concourse,"5501 Josh Birmingham Pkwy, Charlotte",Charlotte,NC,28208,22352-219264,+1 704-359-4218,35.22301,-80.93983,"Blonde Espresso,In Store,Mobile Order and Pay,Nitro Cold Brew,Oven-warmed Food,Redeem Rewards"
I-77 & Sunset,"6328 Banner Elk Drive, Charlotte",Charlotte,NC,28216,65466-299664,+1 704-413-1920,35.30639,-80.85075,"Drive-Thru,In Store,Mobile Order and Pay,Nitro Cold Brew,Oven-warmed Food,Redeem Rewards,Starbucks Wi-Fi"
CLT D Concourse,"5501 Josh Birmingham Pkwy, Charlotte",Charlotte,NC,28208,50153-272404,+1 704-359-4546,35.22076,-80.94025,"Blonde Espresso,Mobile Order and Pay,Oven-warmed Food,Redeem Rewards"
Monroe and Idlewild,"4044 Connection Point Boulevard, Charlotte",Charlotte,NC,28212,58139-291004,+1 704-942-5074,35.18451,-80.75835,"Drive-Thru,In Store,Mobile Order and Pay,Nitro Cold Brew,Oven-warmed Food,Starbucks Wi-Fi"
Sharon Road and Fairview Road,"4805 Sharon Road, Charlotte",Charlotte,NC,28210,25058-237072,+1 980-221-6249,35.14608,-80.8317,"Drive-Thru,In Store,Mobile Order and Pay,Nitro Cold Brew,Oven-warmed Food,Starbucks Wi-Fi"
CLT C Concourse,"5502 Josh Birmingham Parkway, Charlotte",Charlotte,NC,28208,72362-5660,+1 704-359-4546,35.21853,-80.94238,"Blonde Espresso,In Store,Mobile Order and Pay,Nitro Cold Brew,Open 24 hours per day,Oven-warmed Food,Redeem Rewards,Wireless Hot-Spot"
CLT B Concourse,"5501 Josh Birmingham Parkway, Charlotte",Charlotte,NC,28208,72402-3649,+1 704-359-4982,35.2184,-80.94521,"Blonde Espresso,Mobile Order and Pay,Nitro Cold Brew,Oven-warmed Food,Redeem Rewards,Wireless Hot-Spot"
CLT A Concourse,"5501 RC Josh Birmingham Pkwy, Charlotte",Charlotte,NC,28208,54885-286632,+1 704-359-4546,35.22047,-80.94639,"Blonde Espresso,In Store,Mobile Order and Pay,Nitro Cold Brew,Open 24 hours per day,Oven-warmed Food,Redeem Rewards,Wireless Hot-Spot"
Ikea Blvd,"6925 University City Blvd, Charlotte",Charlotte,NC,28262,50494-271628,+1 980-266-7269,35.29072,-80.7653,"Drive-Thru,In Store,Mobile Order and Pay,Nitro Cold Brew,Oven-warmed Food,Redeem Rewards,Starbucks Wi-Fi"
Target Charlotte NE T-1081,"8120 University City Blvd, Charlotte",Charlotte,NC,28213,69366-303803,+1 704-599-6332,35.29258,-80.74572,"Blonde Espresso,Nitro Cold Brew,Oven-warmed Food,Redeem Rewards"
Arrowood Road,"7819 Forest Pine Drive, Charlotte",Charlotte,NC,28217,10324-99035,+1 704-523-2699,35.13685,-80.9042,"Drive-Thru,In Store,Mobile Order and Pay,Nitro Cold Brew,Oven-warmed Food,Redeem Rewards,Starbucks Wi-Fi"
University City & W T Harris B,"8420 University City Blvd, charlotte",charlotte,NC,28213,64837-298843,+1 980-710-6004,35.29596,-80.74165,"Drive-Thru,In Store,Mobile Order and Pay,Nitro Cold Brew,Oven-warmed Food,Redeem Rewards,Starbucks Wi-Fi"
Harris Teeter Charlotte 258,"8600 University City Blvd, Charlotte",Charlotte,NC,28213,79419-98072,+1 704-593-1395,35.29601,-80.7391,"In Store,Mobile Order and Pay,Oven-warmed Food,Redeem Rewards,Wireless Hot-Spot"
WT Harris & Davis Lake Pkwy,"8421 Davis Lake Parkway, Charlotte",Charlotte,NC,28269,10388-301466,+1 704-921-4515,35.33361,-80.81168,"Drive-Thru,In Store,Mobile Order and Pay,Nitro Cold Brew,Oven-warmed Food,Redeem Rewards,Starbucks Wi-Fi"
Olde Towne Village,"4100 Carmel Road, Charlotte",Charlotte,NC,28226,8351-13967,+1 704-541-0203,35.11706,-80.82379,"In Store,Mobile Order and Pay,Nitro Cold Brew,Oven-warmed Food,Redeem Rewards,Starbucks Wi-Fi"
Harris Teeter Charlotte 204,"8538 Park Road, Charlotte",Charlotte,NC,28210,66645-300700,+1 704-553-8378,35.11654,-80.85829,"Blonde Espresso,In Store,Mobile Order and Pay,Nitro Cold Brew,Oven-warmed Food,Redeem Rewards,Wireless Hot-Spot"
Whitehall,"8951-A SOUTH TRYON STREET, Charlotte",Charlotte,NC,28273,8572-82300,+1 704-504-1832,35.13661,-80.93713,"Drive-Thru,In Store,Mobile Order and Pay,Nitro Cold Brew,Oven-warmed Food,Redeem Rewards,Starbucks Wi-Fi"
Mallard Pointe,"9335 North Tryon Street, Charlotte",Charlotte,NC,28262,8234-173224,+1 704-547-1787,35.31349,-80.7431,"Drive-Thru,In Store,Mobile Order and Pay,Nitro Cold Brew,Oven-warmed Food,Redeem Rewards,Starbucks Wi-Fi"
Charlotte Premium Outlet Mall,"5434 New Fashion Way, Charlotte",Charlotte,NC,28278,86892-315979,,35.16924,-80.97029,"Blonde Espresso,In Store,Mobile Order and Pay,Nitro Cold Brew,Outdoor Seating,Oven-warmed Food,Redeem Rewards"
UNCC Atkins Library,"9201 University Blvd., Charlotte",Charlotte,NC,28223,69380-302337,+1 704-687-7056,35.30551,-80.73263,"Blonde Espresso,Mobile Order and Pay,Nitro Cold Brew,Oven-warmed Food"
UNCC Popp Martin Student Union,"9201 University City Blvd, Charlotte",Charlotte,NC,28223,78090-115167,+1 704-687-7056,35.30845,-80.73368,"Blonde Espresso,Mobile Order and Pay,Nitro Cold Brew,Oven-warmed Food"
8837 Albemarle Rd,"8837 Albemarle Rd, Charlotte",Charlotte,NC,28227,63948-295804,+1 704-748-0598,35.21154,-80.69628,"Drive-Thru,In Store,Mobile Order and Pay,Nitro Cold Brew,Oven-warmed Food,Redeem Rewards"
Target Charlotte 762,"9531 South Blvd, Charlotte",Charlotte,NC,28273,76129-88986,+1 704-556-7082,35.10835,-80.87873,"In Store,Redeem Rewards,Wireless Hot-Spot"
South Blvd & I-485,"9425 South Blvd, Charlotte",Charlotte,NC,28273,71681-302157,+1 980-985-9857,35.10881,-80.88115,"Drive-Thru,In Store,Mobile Order and Pay,Nitro Cold Brew,Oven-warmed Food"
Marriott Downtown Raleigh,"500 Fayetteville St. Mall, Raleigh",Raleigh,NC,27601,75937-101885,+1 919-334-9894,35.77386,-78.63966,"Blonde Espresso,In Store,Oven-warmed Food,Wireless Hot-Spot"
Seaboard Station,"16 Seaboard Ave, Raleigh",Raleigh,NC,27604,79152-306629,+1 919-321-8590,35.78902,-78.63889,"Café Seating,In Store,Mobile Order and Pay,Nitro Cold Brew,Outdoor Seating,Oven-warmed Food,Redeem Rewards,Starbucks Wi-Fi"
Glenwood Ave & Peace St,"609 W Peace St, Raleigh",Raleigh,NC,27605,8373-18706,+1 919-754-9007,35.78843,-78.64787,"Café Seating,In Store,Mobile Order and Pay,Nitro Cold Brew,Outdoor Seating,Oven-warmed Food,Redeem Rewards,Starbucks Wi-Fi"
Cameron St & Oberlin Rd,"2105 Cameron St, Raleigh",Raleigh,NC,27605,8218-193864,+1 919-856-9444,35.79071,-78.6618,"Café Seating,In Store,Mobile Order and Pay,Nitro Cold Brew,Outdoor Seating,Oven-warmed Food,Redeem Rewards,Starbucks Wi-Fi"
Harris Teeter Raleigh 21,"500 Oberlin Rd., Raleigh",Raleigh,NC,27605,60964-295062,+1 919-828-9216,35.79135,-78.66192,"Blonde Espresso,In Store,Mobile Order and Pay,Nitro Cold Brew,Oven-warmed Food,Redeem Rewards"
NCSU Talley Student Union,"2610 Cates Ave, Raleigh",Raleigh,NC,27607,23848-188525,+1 919-513-2013,35.78347,-78.6707,"Blonde Espresso,In Store,Nitro Cold Brew,Oven-warmed Food"
Pickup - Hillsborough & Pogue,"2526 Hillsborough St, Raleigh",Raleigh,NC,27607,65553-298685,+1 984-842-3003,35.78822,-78.66938,"In Store,Mobile Order and Pay,Nitro Cold Brew,Oven-warmed Food,Redeem Rewards,Starbucks Wi-Fi"
Wake Forest Rd and Six Forks R,"2901 Sherman Oak Place, Raleigh",Raleigh,NC,27609,55712-286740,+1 919-817-1908,35.82133,-78.62291,"Drive-Thru,In Store,Mobile Order and Pay,Nitro Cold Brew,Oven-warmed Food"
Capital Blvd & Huntleigh Dr,"3023 Capital Blvd., Raleigh",Raleigh,NC,27604,8462-15594,+1 919-875-8760,35.82136,-78.59183,"Drive-Thru,In Store,Mobile Order and Pay,Nitro Cold Brew,Oven-warmed Food,Redeem Rewards,Starbucks Wi-Fi"
Target Raleigh CENTRAL 1892,"4191 The Circle at N Hills St., Raleigh",Raleigh,NC,27609,76282-93055,+1 919-781-9848,35.83727,-78.64233,"Blonde Espresso,In Store,Nitro Cold Brew,Oven-warmed Food,Redeem Rewards"
Lake Boone Trail & Wycliff Rd,"3800 Lake Boone Trail, Raleigh",Raleigh,NC,27607,11189-101304,+1 919-781-6211,35.81609,-78.69375,"Drive-Thru,In Store,Mobile Order and Pay,Nitro Cold Brew,Oven-warmed Food,Redeem Rewards,Starbucks Wi-Fi"
Fayetteville Rd & Annaron Ct,"4203 Fayetteville Road, Raleigh",Raleigh,NC,27603,57972-290849,+1 919-779-3993,35.72208,-78.65231,"Café Seating,Drive-Thru,In Store,Mobile Order and Pay,Nitro Cold Brew,Outdoor Seating,Oven-warmed Food,Redeem Rewards,Starbucks Wi-Fi"
Lassiter Mill Rd & Six Forks R,"4421 Six Forks Road, Raleigh",Raleigh,NC,27609,8459-34859,+1 919-571-0713,35.83989,-78.643,"Café Seating,In Store,Mobile Order and Pay,Nitro Cold Brew,Outdoor Seating,Oven-warmed Food,Redeem Rewards,Starbucks Wi-Fi"
Wake Forest and Hardimont Road,"4109 Wake Forest Road, Raleigh",Raleigh,NC,27609,63942-296337,+1 984-292-0090,35.83786,-78.61342,"Drive-Thru,In Store,Mobile Order and Pay,Nitro Cold Brew,Oven-warmed Food,Redeem Rewards,Starbucks Wi-Fi"
Target Garner 1104,"2700 Timber Dr, Garner",Garner,NC,27529,19907-128670,+1 919-772-9065,35.71548,-78.6389,"Blonde Espresso,In Store,Oven-warmed Food,Redeem Rewards"
New Bern Ave & New Hope Rd,"4421 New Bern Avenue, Raleigh",Raleigh,NC,27610,9465-96435,+1 919-231-3271,35.79874,-78.56078,"Drive-Thru,In Store,Mobile Order and Pay,Nitro Cold Brew,Oven-warmed Food,Redeem Rewards,Starbucks Wi-Fi"
Crabtree Valley Mall Level 2,"4325 Glenwood Avenue, Raleigh",Raleigh,NC,27612,8589-267123,+1 919-788-0656,35.84114,-78.6799,"Café Seating,In Store,Mobile Order and Pay,Nitro Cold Brew,Outdoor Seating,Oven-warmed Food,Redeem Rewards,Starbucks Wi-Fi"
Edwards Mill Rd & Duraleigh Rd,"3101-305 Edwards Mill Road, Raleigh",Raleigh,NC,27612,8272-1608,+1 919-789-4422,35.82485,-78.70722,"Café Seating,In Store,Mobile Order and Pay,Nitro Cold Brew,Outdoor Seating,Oven-warmed Food,Redeem Rewards,Starbucks Wi-Fi"
Target Cary 0961,"2021 Walnut Street, Cary",Cary,NC,27518,54667-282264,+1 919-233-4451,35.75789,-78.73822,"Blonde Espresso,In Store,Nitro Cold Brew,Oven-warmed Food,Redeem Rewards"
Harris Teeter Raleigh 319,"2051 W Millbrook Rd, Raleigh",Raleigh,NC,27612,25488-233566,+1 919-787-1364,35.85691,-78.67963,"Blonde Espresso,In Store,Mobile Order and Pay,Oven-warmed Food,Redeem Rewards"
Crossroads Blvd & Caitboo Ave,"204 Crossroads Blvd, Cary",Cary,NC,27518,13922-108466,+1 919-233-4905,35.76054,-78.74101,"Drive-Thru,In Store,Mobile Order and Pay,Nitro Cold Brew,Oven-warmed Food,Redeem Rewards,Starbucks Wi-Fi"
Falls of Neuse & Spring Forest,"6176 Falls of Neuse Road, Raleigh",Raleigh,NC,27609,8214-170244,+1 919-873-9615,35.8666,-78.6202,"Café Seating,Drive-Thru,In Store,Mobile Order and Pay,Nitro Cold Brew,Outdoor Seating,Oven-warmed Food,Redeem Rewards,Starbucks Wi-Fi"
Capital Blvd & Spring Forest R,"5100 Capital Blvd, Raleigh",Raleigh,NC,27616,21218-202504,+1 919-713-2135,35.85568,-78.58058,"Café Seating,Drive-Thru,In Store,Mobile Order and Pay,Nitro Cold Brew,Outdoor Seating,Oven-warmed Food,Redeem Rewards,Starbucks Wi-Fi"
Tryon Rd & Walnut St,"8204 Tryon Woods Dr, Cary",Cary,NC,27518,11967-104840,+1 919-851-6439,35.74616,-78.74186,"Drive-Thru,In Store,Mobile Order and Pay,Nitro Cold Brew,Oven-warmed Food,Redeem Rewards,Starbucks Wi-Fi"
Harris Teeter Cary 330,"1151 TRYON VILLAGE DRIVE, Cary",Cary,NC,27518,73887-103383,+1 919-233-3476,35.74668,-78.74342,"Blonde Espresso,In Store,Mobile Order and Pay,Redeem Rewards,Wireless Hot-Spot"
"Hwy 70 & Jones Sausage Rd, Exi","180 Cabela Drive, Garner",Garner,NC,27529,25115-100534,+1 919-819-5059,35.69759,-78.58386,"Café Seating,Drive-Thru,In Store,Mobile Order and Pay,Nitro Cold Brew,Outdoor Seating,Oven-warmed Food,Redeem Rewards,Starbucks Wi-Fi"
Pleasant Valley Promenade,"6282 Glenwood Avenue, Raleigh",Raleigh,NC,27612,8217-822,+1 919-785-0111,35.85774,-78.7036,"Café Seating,In Store,Mobile Order and Pay,Nitro Cold Brew,Outdoor Seating,Oven-warmed Food,Redeem Rewards,Starbucks Wi-Fi"
Walnut Street & Maynard Rd,"1107 Walnut Street, Cary",Cary,NC,27511,9840-98530,+1 919-468-9908,35.77148,-78.76259,"Drive-Thru,In Store,Mobile Order and Pay,Nitro Cold Brew,Oven-warmed Food,Redeem Rewards,Starbucks Wi-Fi"
Six Forks & Saw Mill,"7447 Six Forks Road, Raleigh",Raleigh,NC,27615,67287-298395,+1 919-342-3314,35.88163,-78.64648,"Drive-Thru,Mobile Order and Pay,Nitro Cold Brew,Oven-warmed Food,Redeem Rewards,Starbucks Wi-Fi"
Target Raleigh 1826,"7900 Old Wake Forest Rd, Raleigh",Raleigh,NC,27616,76118-79329,+1 919-790-1024,35.86614,-78.56796,"Blonde Espresso,In Store,Oven-warmed Food,Redeem Rewards"
Harris Teeter Cary 430,"885 Walnut St, Cary",Cary,NC,27511,23652-230989,+1 919-481-4251,35.77382,-78.76613,"Blonde Espresso,In Store,Mobile Order and Pay,Oven-warmed Food,Redeem Rewards,Wireless Hot-Spot"
Target White Oak Garner 1824,"1040 Timber Dr E, Garner",Garner,NC,27529,59237-290363,+1 919-661-2017,35.68724,-78.5793,"In Store,Oven-warmed Food,Redeem Rewards,Wireless Hot-Spot"
"Hwy 540 & Business 64, Exit 24","212 Hinton Oaks Boulevard, Knightdale",Knightdale,NC,27545,26652-239808,+1 919-801-5181,35.79632,-78.51154,"Drive-Thru,In Store,Mobile Order and Pay,Nitro Cold Brew,Outdoor Seating,Oven-warmed Food,Starbucks Wi-Fi"
Target Knightdale 2111,"1000 Shoppes at Midway Dr, Knightdale",Knightdale,NC,27545,76589-98291,+1 919-388-6100,35.7905,-78.5024,"Blonde Espresso,In Store,Nitro Cold Brew,Oven-warmed Food,Redeem Rewards"
Stonehenge Dr & Creedmoor Rd,"7498 Creedmor Road, Raleigh",Raleigh,NC,27613,8270-1606,+1 919-846-0633,35.88779,-78.67874,"Café Seating,In Store,Mobile Order and Pay,Nitro Cold Brew,Outdoor Seating,Oven-warmed Food,Redeem Rewards,Starbucks Wi-Fi"
"Weston Pkwy & Harrison Ave, Ex","125 Weston Parkway, Cary",Cary,NC,27513,8545-51440,+1 919-677-6104,35.82747,-78.77041,"In Store,Mobile Order and Pay,Nitro Cold Brew,Oven-warmed Food,Redeem Rewards,Starbucks Wi-Fi"
Kildaire Farm & Farmington Woo,"1217 Kildaire Farm Road, Cary",Cary,NC,27511,10967-103699,+1 919-465-1229,35.7628,-78.78269,"Drive-Thru,In Store,Mobile Order and Pay,Nitro Cold Brew,Oven-warmed Food,Redeem Rewards,Starbucks Wi-Fi"
Harris Teeter Cary 112,"270 GRANDE HEIGHTS DR., Cary",Cary,NC,27513,48136-261246,+1 919-460-4326,35.805,-78.78085,"Blonde Espresso,In Store,Mobile Order and Pay,Oven-warmed Food,Redeem Rewards"
Target Raleigh Six Forks Road,"8701 Six Forks Rd, Raleigh",Raleigh,NC,27615,67142-298123,+1 919-326-0118,35.89834,-78.65292,"Blonde Espresso,Nitro Cold Brew,Oven-warmed Food,Redeem Rewards"
Six Forks & Strickland,"9441 Strickland Road, Raleigh",Raleigh,NC,27615,16019-160470,+1 919-845-4566,35.90091,-78.65438,"Café Seating,Drive-Thru,In Store,Mobile Order and Pay,Nitro Cold Brew,Outdoor Seating,Oven-warmed Food,Redeem Rewards,Starbucks Wi-Fi"
Fayetteville Rd & Ten Ten,"7860 Fayetteville Rd, Raleigh",Raleigh,NC,27603,65867-300167,+1 984-292-1179,35.6674,-78.69812,"Café Seating,Drive-Thru,In Store,Mobile Order and Pay,Nitro Cold Brew,Outdoor Seating,Oven-warmed Food,Redeem Rewards,Starbucks Wi-Fi"
Harris Teeter Cary 257,"2080 Kildaire Farm Rd, Cary",Cary,NC,27518,23289-97715,+1 919-233-9483,35.73627,-78.77959,"Blonde Espresso,In Store,Mobile Order and Pay,Oven-warmed Food,Redeem Rewards,Wireless Hot-Spot"
Harris Teeter Raleigh 495,"8345 Creedmoor Rd, Raleigh",Raleigh,NC,27613,59267-292601,+1 919-659-8221,35.90074,-78.68109,"In Store,Mobile Order and Pay,Nitro Cold Brew,Oven-warmed Food,Redeem Rewards"
Harris Teeter Garner 283,"8101 Fayetteville Rd, Fuquay-Varina",Fuquay-Varina,NC,27603,79379-100643,+1 919-772-0241,35.66343,-78.69967,"In Store,Mobile Order and Pay,Oven-warmed Food,Redeem Rewards,Wireless Hot-Spot"
Harris Teeter Raleigh 136,"9600 Falls of Neuse Rd., Raleigh",Raleigh,NC,27615,59759-293847,+1 919-676-6614,35.9045,-78.60099,"In Store,Mobile Order and Pay,Nitro Cold Brew,Redeem Rewards"
Falls of Neuse Rd & Morrocroft,"9630 Falls of the Neuse Road, Raleigh",Raleigh,NC,27615,8495-41081,+1 919-847-1363,35.9048,-78.60187,"In Store,Mobile Order and Pay,Nitro Cold Brew,Oven-warmed Food,Redeem Rewards,Starbucks Wi-Fi"
Evans Rd & Maynard Rd,"1904 Northwest Maynard Road, Cary",Cary,NC,27513,10158-97033,+1 919-481-9124,35.79866,-78.79508,"Drive-Thru,In Store,Mobile Order and Pay,Nitro Cold Brew,Oven-warmed Food,Redeem Rewards,Starbucks Wi-Fi"
US64 & Edinburgh,"101 Edinburgh South Drive, Cary",Cary,NC,27511,63949-297248,+1 919-342-6260,35.73825,-78.79825,"Drive-Thru,In Store,Mobile Order and Pay,Nitro Cold Brew,Oven-warmed Food,Redeem Rewards,Starbucks Wi-Fi"
Harris Teeter Raleigh 90,"13210 Strickland Rd., Raleigh",Raleigh,NC,27613,55883-289607,+1 919-676-3534,35.90686,-78.72577,"Blonde Espresso,In Store,Mobile Order and Pay,Oven-warmed Food,Redeem Rewards"
Cary Parkway & Darrington,"1070 Darrington Dr, Cary",Cary,NC,27513,68126-301629,+1 919-342-3005,35.79998,-78.81712,"Café Seating,Drive-Thru,In Store,Mobile Order and Pay,Nitro Cold Brew,Outdoor Seating,Oven-warmed Food,Redeem Rewards,Starbucks Wi-Fi"
500 W Market St,"500 W Market St, Greensboro",Greensboro,NC,27401,66193-298020,+1 336-860-0935,36.07331,-79.79648,"Drive-Thru,In Store,Mobile Order and Pay,Nitro Cold Brew,Oven-warmed Food,Redeem Rewards,Starbucks Wi-Fi"
North Carolina A&T State Unive,"1601 E Market St, Greensboro",Greensboro,NC,27411,8148-79743,+1 336-334-7560,36.07431,-79.77468,"Blonde Espresso,In Store,Nitro Cold Brew,Oven-warmed Food,Wireless Hot-Spot"
Battleground Ave & Mill St,"1603 Battleground Avenue, Greensboro",Greensboro,NC,27408,8696-93966,+1 336-272-7061,36.08943,-79.81047,"In Store,Mobile Order and Pay,Nitro Cold Brew,Oven-warmed Food,Redeem Rewards,Starbucks Wi-Fi"
Cornwallis & Church,"405 E. Cornwallis Ave, Greensboro",Greensboro,NC,27405,69787-303608,+1 336-860-0969,36.10252,-79.78342,"Drive-Thru,In Store,Mobile Order and Pay,Nitro Cold Brew,Oven-warmed Food,Redeem Rewards,Starbucks Wi-Fi"
Green Valley Rd and Friendly A,"607 Green Valley Rd, Greensboro",Greensboro,NC,27408,56748-289682,+1 336-936-4677,36.08436,-79.82955,"Drive-Thru,In Store,Mobile Order and Pay,Nitro Cold Brew,Oven-warmed Food,Redeem Rewards,Starbucks Wi-Fi"
Harris Teeter Greensboro 347,"2639 Lawndale Dr, Greensboro",Greensboro,NC,27408,27181-246565,+1 336-545-1354,36.10304,-79.81914,"In Store,Mobile Order and Pay,Oven-warmed Food,Redeem Rewards"
Target Greensboro NW 1180,"2701 Lawndale Dr, Greensboro",Greensboro,NC,27408,56247-289105,+1 336-286-2511,36.10464,-79.82135,"Blonde Espresso,In Store,Nitro Cold Brew,Redeem Rewards"
Harris Teeter Friendly 306,"3330 West Friendly Avenue, Greensboro",Greensboro,NC,27410,68714-303693,+1 336-297-1361,36.08815,-79.83803,"Blonde Espresso,Mobile Order and Pay,Nitro Cold Brew,Oven-warmed Food,Redeem Rewards"
Battleground Ave at Edney Ridg,"2969 Battleground Avenue, Greensboro",Greensboro,NC,27408,8222-252187,+1 336-282-0445,36.11473,-79.83562,"Drive-Thru,In Store,Mobile Order and Pay,Nitro Cold Brew,Oven-warmed Food,Redeem Rewards,Starbucks Wi-Fi"
Pisgah Church Rd & N Elm St,"505 Pisgah Church Road, Greensboro",Greensboro,NC,27455,9798-96617,+1 336-545-9454,36.13084,-79.79897,"Drive-Thru,In Store,Mobile Order and Pay,Nitro Cold Brew,Oven-warmed Food,Redeem Rewards,Starbucks Wi-Fi"
Harris Teeter Greensboro 91,"401 Pisgah Church Rd, Greensboro",Greensboro,NC,27455,29068-97497,,36.13162,-79.79613,"Blonde Espresso,In Store,Mobile Order and Pay,Oven-warmed Food,Redeem Rewards"
"South Elm & I-85, Exit 124","3711 Elmsley Street, Greensboro",Greensboro,NC,27406,11057-103156,+1 336-273-4531,36.00223,-79.7931,"Drive-Thru,In Store,Mobile Order and Pay,Nitro Cold Brew,Oven-warmed Food,Redeem Rewards,Starbucks Wi-Fi"
W Friendly Ave & Dolley Madiso,"5607 W Friendly Ave, Greensboro",Greensboro,NC,27410,8374-13014,+1 336-292-3020,36.08883,-79.88575,"In Store,Mobile Order and Pay,Nitro Cold Brew,Oven-warmed Food,Redeem Rewards,Starbucks Wi-Fi"
Highwoods Cir & New Garden Rd,"1562 Highwoods Blvd, Greensboro",Greensboro,NC,27410,10605-99128,+1 336-834-4620,36.11188,-79.87931,"In Store,Mobile Order and Pay,Nitro Cold Brew,Oven-warmed Food,Redeem Rewards,Starbucks Wi-Fi"
Target Greensboro WEST 2108,"1628 Highwoods Blvd, Greensboro",Greensboro,NC,27410,76689-97498,+1 336-455-9900,36.11305,-79.87867,"Blonde Espresso,In Store,Nitro Cold Brew,Oven-warmed Food,Redeem Rewards"
Harris Teeter Greensboro 33,"701 Frances King St, Greensboro",Greensboro,NC,27410,72867-93650,+1 336-856-8140,36.08879,-79.89091,"Blonde Espresso,In Store,Mobile Order and Pay,Oven-warmed Food,Redeem Rewards"
"Wendover & I-40, Exit 214 A","4404 W. Wendover Avenue, Greensboro",Greensboro,NC,27407,50808-273785,+1 336-315-1804,36.05631,-79.89729,"Drive-Thru,In Store,Mobile Order and Pay,Nitro Cold Brew,Oven-warmed Food,Redeem Rewards,Starbucks Wi-Fi"
Target Greensboro SOUTH 1078,"1212 Bridford Pkwy, Greensboro",Greensboro,NC,27407,17470-181564,+1 336-856-1066,36.05432,-79.90254,"Blonde Espresso,In Store,Oven-warmed Food,Redeem Rewards"
Harris Teeter Greensboro 280,"4010 Battleground Ave, Greensboro",Greensboro,NC,27410,29074-251947,+1 336-288-2203,36.14763,-79.86947,"Blonde Espresso,In Store,Mobile Order and Pay,Oven-warmed Food,Redeem Rewards"
Battlegrnd Ave & Horse Pen Crk,"4016 Battleground Ave, Greensboro",Greensboro,NC,27410,14437-119070,+1 336-282-3177,36.14839,-79.86918,"Drive-Thru,In Store,Mobile Order and Pay,Nitro Cold Brew,Oven-warmed Food,Redeem Rewards,Starbucks Wi-Fi"
Harris Teeter Greensboro 64,"5710 W Gate City Blvd, Greensboro",Greensboro,NC,27407,27919-230643,+1 336-854-4050,36.01658,-79.897,"Blonde Espresso,In Store,Mobile Order and Pay,Oven-warmed Food,Redeem Rewards"
Gate City Blvd and Guilford Co,"6019 W. Gate City Blvd, Greensboro",Greensboro,NC,27407,68124-301764,+1 336-860-0996,36.00269,-79.90549,"Drive-Thru,In Store,Mobile Order and Pay,Nitro Cold Brew,Oven-warmed Food,Redeem Rewards,Starbucks Wi-Fi"
GSO North Concourse Gate 26,"1000 Ted Johnson Pkwy, Greensboro",Greensboro,NC,27409,48628-263366,+1 336-933-7130,36.10502,-79.93437,"Blonde Espresso,In Store,Mobile Order and Pay,Nitro Cold Brew,Oven-warmed Food,Redeem Rewards"
GSO South Concourse Gate 41,"1000 Ted Johnson Pkwy, Greensboro",Greensboro,NC,27409,48506-263365,+1 336-933-7130,36.10418,-79.93685,"Blonde Espresso,In Store,Mobile Order and Pay,Nitro Cold Brew,Oven-warmed Food,Redeem Rewards"
Shoppes at Palladium & Hwy 68,"3875 John Gordon Lane, High Point",High Point,NC,27265,8486-35081,+1 336-841-1072,36.03574,-79.96257,"Drive-Thru,In Store,Mobile Order and Pay,Nitro Cold Brew,Oven-warmed Food,Redeem Rewards,Starbucks Wi-Fi"
Harris Teeter High Point 173,"1589 Skeet Club Rd, High Point",High Point,NC,27265,61831-295444,+1 336-841-1144,36.03276,-79.96851,"Blonde Espresso,Mobile Order and Pay,Nitro Cold Brew,Oven-warmed Food,Redeem Rewards"
I40 & Rock Creek Dairy Rd,"6405 Burlington Road, Whitsett",Whitsett,NC,27377,67829-299886,+1 336-499-1628,36.06333,-79.6067,"Drive-Thru,In Store,Mobile Order and Pay,Nitro Cold Brew,Oven-warmed Food,Redeem Rewards,Starbucks Wi-Fi"
Furnitureland South Jamestown,"5635 Riverdale Dr, Jamestown",Jamestown,NC,27282,78069-115624,+1 336-822-3702,35.9695,-79.92739,"Mobile Order and Pay,Nitro Cold Brew,Oven-warmed Food,Redeem Rewards,Wireless Hot-Spot"
NC68 and Oak Ridge Road,"1684 NC Hwy 68 North, Oak Ridge",Oak Ridge,NC,27310,68127-300863,+1 336-499-2165,36.17209,-79.98768,"Drive-Thru,In Store,Mobile Order and Pay,Nitro Cold Brew,Oven-warmed Food,Redeem Rewards,Starbucks Wi-Fi"
Target High Point 1079,"1050 Mall Loop, High Point",High Point,NC,27262,50475-274864,+1 336-884-5222,35.99384,-80.00818,"Blonde Espresso,In Store,Oven-warmed Food,Redeem Rewards"
High Point University Cottrell,"823 5th Street, High Point",High Point,NC,27262,25847-236825,+1 336-847-6169,35.97741,-80.00005,"Blonde Espresso,In Store,Nitro Cold Brew,Oven-warmed Food"
High Point Univ. Slane Buildin,"833 Montlieu Avenue, High Point",High Point,NC,27262,75413-102926,+1 336-888-6309,35.96883,-79.99417,"Blonde Espresso,In Store,Nitro Cold Brew,Oven-warmed Food,Wireless Hot-Spot"
Harris Teeter High Point 341,"265 Eastchester Dr, High Point",High Point,NC,27262,79361-101270,+1 336-869-6317,35.9844,-80.01928,"Blonde Espresso,In Store,Mobile Order and Pay,Redeem Rewards"
N Main St & Parris Ave,"2209 N Main Street, High Point",High Point,NC,27262,8961-286512,+1 336-688-1455,35.98451,-80.02446,"Café Seating,Drive-Thru,In Store,Mobile Order and Pay,Nitro Cold Brew,Outdoor Seating,Oven-warmed Food,Redeem Rewards,Starbucks Wi-Fi"
I-74 & Old Plank Rd,"6534 Old Plank Rd, High Point",High Point,NC,27265,65594-299882,+1 336-802-1003,36.00542,-80.03664,"Drive-Thru,In Store,Mobile Order and Pay,Nitro Cold Brew,Oven-warmed Food,Redeem Rewards,Starbucks Wi-Fi"
"I-85 & S. Main, Archdale","10101 S. Main, Archdale",Archdale,NC,27263,67061-300335,+1 336-499-1506,35.90279,-79.95114,"Café Seating,Drive-Thru,In Store,Mobile Order and Pay,Nitro Cold Brew,Outdoor Seating,Oven-warmed Food,Redeem Rewards,Starbucks Wi-Fi"
"Univ Common Dr & Univ Dr, Ext","1447 University Drive, Burlington",Burlington,NC,27215,9839-98359,+1 336-584-6795,36.06816,-79.52042,"Drive-Thru,In Store,Mobile Order and Pay,Nitro Cold Brew,Oven-warmed Food,Redeem Rewards,Starbucks Wi-Fi"
Target Burlington 2037,"1475 University Dr, Burlington",Burlington,NC,27215,76466-96570,+1 336-524-9354,36.06637,-79.5199,"Blonde Espresso,In Store,Nitro Cold Brew,Oven-warmed Food,Redeem Rewards"
"Huffman Mill Rd, Ext 141","451 Huffman Mill Road, Burlington",Burlington,NC,27215,9763-98360,+1 336-538-6997,36.07619,-79.48878,"Drive-Thru,In Store,Mobile Order and Pay,Nitro Cold Brew,Oven-warmed Food,Redeem Rewards,Starbucks Wi-Fi"
Harris Teeter Kernersville 250,"971 S Main St, Kernersville",Kernersville,NC,27284,70320-99584,+1 336-992-9735,36.10741,-80.09494,"Blonde Espresso,In Store,Mobile Order and Pay,Oven-warmed Food,Redeem Rewards,Wireless Hot-Spot"
Harris Teeter Burlington 345,"2727 S Church St, Burlington",Burlington,NC,27215,79343-103391,+1 336-585-1444,36.08216,-79.48425,"Blonde Espresso,In Store,Mobile Order and Pay,Nitro Cold Brew,Oven-warmed Food,Redeem Rewards,Wireless Hot-Spot"
S Main St and Masten Dr,"1020 S. Main Street, Kernersville",Kernersville,NC,27284,11058-243148,+1 336-996-2819,36.10828,-80.09789,"Drive-Thru,In Store,Mobile Order and Pay,Nitro Cold Brew,Oven-warmed Food,Redeem Rewards,Starbucks Wi-Fi"
Target Kernersville 2134,"1024 S Main St, Kernersville",Kernersville,NC,27284,76588-101401,+1 336-992-1680,36.1097,-80.09933,"Blonde Espresso,In Store,Oven-warmed Food,Redeem Rewards"
"I-40 & Union Cross, Kernersvil","1476 Jag Branch Blvd, Kernersville",Kernersville,NC,27284,65593-299621,+1 336-936-4706,36.07969,-80.10626,"Drive-Thru,In Store,Mobile Order and Pay,Nitro Cold Brew,Oven-warmed Food,Redeem Rewards,Starbucks Wi-Fi"
I-40 and Maple Ave,"2555 Maple Avenue, Burlington",Burlington,NC,27215,67485-298992,+1 743-208-7844,36.0625,-79.43248,"Café Seating,Drive-Thru,In Store,Mobile Order and Pay,Nitro Cold Brew,Outdoor Seating,Oven-warmed Food,Redeem Rewards,Starbucks Wi-Fi"
"5200 Freeway Dr, Reidsville","5200 US-29 Business, Reidsville",Reidsville,NC,27320,71239-303501,+1 336-791-4624,36.38052,-79.66302,"Drive-Thru,In Store,Mobile Order and Pay,Nitro Cold Brew,Oven-warmed Food,Redeem Rewards,Starbucks Wi-Fi"
N. Carolina Central Univ. Libr,"1801 Fayetteville St., Durham",Durham,NC,27701,60484-147687,+1 919-530-5353,35.97439,-78.89844,"Blonde Espresso,Mobile Order and Pay,Nitro Cold Brew,Oven-warmed Food"
Pickup - 9th Street Duke,"706 Ninth Street, Durham",Durham,NC,27705,62602-296289,+1 984-842-3029,36.00806,-78.92204,"In Store,Mobile Order and Pay,Nitro Cold Brew,Oven-warmed Food,Starbucks Wi-Fi"
Harris Teeter Durham 394,"2107 Hillborough Rd, Durham",Durham,NC,27705,19542-170046,+1 919-286-1500,36.01003,-78.92431,"Blonde Espresso,In Store,Mobile Order and Pay,Nitro Cold Brew,Oven-warmed Food,Redeem Rewards,Wireless Hot-Spot"
Duke Central Tower,"2301 Erwin Rd., Durham",Durham,NC,27710,65770-283304,+1 919-681-0817,36.00636,-78.93813,"After Hours Wi-Fi,Blonde Espresso,Mobile Order and Pay,Nitro Cold Brew,Open 24 hours per day,Oven-warmed Food,Redeem Rewards"
Harris Teeter Durham 492,"3457 Hillsborough Rd., Durham",Durham,NC,27705,59272-292602,+1 919-383-2249,36.01992,-78.9478,"Blonde Espresso,In Store,Mobile Order and Pay,Nitro Cold Brew,Redeem Rewards"
N Roxboro St & Fairfield St,"4201 N Roxboro Street, Durham",Durham,NC,27704,23693-227588,+1 919-451-7305,36.04784,-78.90365,"Drive-Thru,In Store,Mobile Order and Pay,Nitro Cold Brew,Oven-warmed Food,Starbucks Wi-Fi"
Durham-Chapel Hill & Tower Blv,"4010 Durham Chapel Hill Boulevard, Durham",Durham,NC,27707,25714-242145,+1 919-886-0837,35.96992,-78.95991,"Drive-Thru,In Store,Mobile Order and Pay,Nitro Cold Brew,Oven-warmed Food,Redeem Rewards,Starbucks Wi-Fi"
Target Durham 1872,"4037 Chapel Hill Blvd, Durham",Durham,NC,27707,76134-92543,+1 919-765-0008,35.96658,-78.95849,"Blonde Espresso,In Store,Nitro Cold Brew,Oven-warmed Food,Redeem Rewards,Wireless Hot-Spot"
Harris Teeter Durham 172,"1817 Martin Luther King Pkwy, Durham",Durham,NC,27707,27920-248749,+1 919-489-9887,35.96077,-78.95821,"Blonde Espresso,In Store,Mobile Order and Pay,Nitro Cold Brew,Oven-warmed Food,Redeem Rewards"
Guess Rd and Horton Rd,"3801 Guess Road, Durham",Durham,NC,27705,13656-105132,+1 919-471-2957,36.05782,-78.92941,"Drive-Thru,In Store,Mobile Order and Pay,Nitro Cold Brew,Oven-warmed Food,Redeem Rewards,Starbucks Wi-Fi"
Durham-Chapel Hill & Moriah Ex,"5319 New Hope Commons Dr, Durham",Durham,NC,27707,9715-97673,+1 919-493-2471,35.95433,-78.99395,"In Store,Mobile Order and Pay,Nitro Cold Brew,Oven-warmed Food,Redeem Rewards,Starbucks Wi-Fi"
Harris Teeter Durham 491,"202 NC Hwy 54, Durham",Durham,NC,27713,59271-292599,+1 919-361-9893,35.91094,-78.93575,"Blonde Espresso,In Store,Mobile Order and Pay,Nitro Cold Brew,Oven-warmed Food,Redeem Rewards,Wireless Hot-Spot"
Harris Teeter Durham 224,"1125 West North Carolina 54 Hwy, Durham",Durham,NC,27707,73929-108099,+1 919-403-0794,35.91829,-78.95833,"Blonde Espresso,In Store,Mobile Order and Pay,Oven-warmed Food,Redeem Rewards,Wireless Hot-Spot"
Renaissance Center Durham Ext,"6813 Fayetteville Road, Durham",Durham,NC,27713,9361-77100,+1 919-544-4132,35.90463,-78.93723,"In Store,Mobile Order and Pay,Nitro Cold Brew,Oven-warmed Food,Redeem Rewards,Starbucks Wi-Fi"
Hwy 55 & Allendown Dr,"4834 NC Hwy 55, Durham",Durham,NC,27713,13203-105259,+1 919-293-0232,35.89931,-78.89714,"Drive-Thru,In Store,Mobile Order and Pay,Nitro Cold Brew,Oven-warmed Food,Redeem Rewards,Starbucks Wi-Fi"
Southpoint Mall,"6910 Fayetteville Rd, Durham",Durham,NC,27713,50265-267189,+1 984-260-8151,35.9046,-78.94241,"In Store,Mobile Order and Pay,Nitro Cold Brew,Oven-warmed Food,Redeem Rewards,Starbucks Wi-Fi"
Target Durham SE 2069,"8210 Renaissance Pkwy, Durham",Durham,NC,27713,76480-97492,+1 919-425-0001,35.90415,-78.95305,"Blonde Espresso,In Store,Nitro Cold Brew,Oven-warmed Food,Redeem Rewards,Wireless Hot-Spot"
NC54 & Farrington Rd,"6120 Farrington Road, Chapel Hill",Chapel Hill,NC,27517,66363-299584,+1 984-484-7995,35.91033,-78.98399,"Drive-Thru,In Store,Mobile Order and Pay,Nitro Cold Brew,Oven-warmed Food,Redeem Rewards,Starbucks Wi-Fi"
Harris Teeter Raleigh 304,"4221 Corners Pkwy, Raleigh",Raleigh,NC,27617,52424-279825,+1 919-596-5399,35.91895,-78.78855,"Blonde Espresso,In Store,Mobile Order and Pay,Oven-warmed Food,Redeem Rewards"
E Franklin St & Eastgate Cross,"1800 E Franklin Street, Chapel Hill",Chapel Hill,NC,27514,8715-79143,+1 919-929-2613,35.93663,-79.02558,"In Store,Mobile Order and Pay,Nitro Cold Brew,Oven-warmed Food,Redeem Rewards,Starbucks Wi-Fi"
Harris Teeter Chapel Hill 117,"2110  S Estes Dr, Chapel Hill",Chapel Hill,NC,27514,72920-93638,+1 919-933-5700,35.92938,-79.02638,"Blonde Espresso,In Store,Mobile Order and Pay,Oven-warmed Food,Redeem Rewards,Wireless Hot-Spot"
Page Rd & Slater Rd,"1119 Slater Rd, Durham",Durham,NC,27703,10564-100526,+1 919-941-0482,35.87933,-78.84729,"Drive-Thru,In Store,Mobile Order and Pay,Nitro Cold Brew,Oven-warmed Food,Redeem Rewards,Starbucks Wi-Fi"
Brier Creek Pkwy & Glenwood Av,"7854 Alexander Promenade Pl., Raleigh",Raleigh,NC,27617,8875-94175,+1 919-957-9587,35.91271,-78.78077,"Café Seating,In Store,Mobile Order and Pay,Nitro Cold Brew,Outdoor Seating,Oven-warmed Food,Redeem Rewards,Starbucks Wi-Fi"
Harris Teeter Chapel Hill 120,"116 W. Barbee Chapel Rd, Chapel Hill",Chapel Hill,NC,27517,19139-197344,+1 919-932-5020,35.90645,-79.01079,"In Store,Mobile Order and Pay,Oven-warmed Food,Redeem Rewards,Wireless Hot-Spot"
Target Raleigh NW 1794,"8651 Brier Creek Pkwy, Raleigh",Raleigh,NC,27617,55846-288590,+1 919-765-0005,35.90248,-78.78578,"In Store,Oven-warmed Food,Redeem Rewards"
Brier Creek Westin,"3931 MACAW STREET, RALEIGH",RALEIGH,NC,27617,69298-302751,+1 919-864-9091,35.90513,-78.78224,"Blonde Espresso,In Store,Mobile Order and Pay,Nitro Cold Brew,Oven-warmed Food,Redeem Rewards"
"Hwy 86 & Eubanks Rd, Exit 266","100 Village Center Dirive, Chapel Hill",Chapel Hill,NC,27516,56882-289931,+1 336-534-1524,35.96993,-79.06349,"Drive-Thru,In Store,Mobile Order and Pay,Nitro Cold Brew,Oven-warmed Food,Starbucks Wi-Fi"
Hwy 54 & Carrington Mill,"1017 Carrington Mill Boulevard, Morrisville",Morrisville,NC,27560,59587-293017,+1 984-842-3017,35.85722,-78.84226,"Café Seating,Drive-Thru,In Store,Mobile Order and Pay,Nitro Cold Brew,Outdoor Seating,Oven-warmed Food,Redeem Rewards,Starbucks Wi-Fi"
RDU Terminal 2 Concourse D,"2400 John Brantley Blvd, Raleigh",Raleigh,NC,27560,50154-272526,+1 919-840-0506,35.87604,-78.7951,"Blonde Espresso,Mobile Order and Pay,Nitro Cold Brew,Oven-warmed Food,Redeem Rewards"
OKelly Chapel Rd & Parkside Ma,"1015 Parkside Main St, Cary",Cary,NC,27519,23309-227624,+1 919-466-8062,35.84631,-78.88736,"Drive-Thru,In Store,Mobile Order and Pay,Nitro Cold Brew,Oven-warmed Food,Starbucks Wi-Fi"
RDU Terminal 1,"2400 John Brantley Blvd, Raleigh",Raleigh,NC,27560,21592-212352,+1 984-209-8204,35.87464,-78.78949,"Blonde Espresso,Mobile Order and Pay,Nitro Cold Brew,Oven-warmed Food,Redeem Rewards"
Target Cary 2784,"7129 O'Kelly Chapel Road, Cary",Cary,NC,27519,21786-214784,+1 919-674-2214,35.84403,-78.8852,"In Store,Oven-warmed Food,Redeem Rewards"
Harris Teeter Cary 236,"7145 O'Kelly Chapel Rd, Cary",Cary,NC,27519,23353-229005,+1 919-465-9432,35.84373,-78.88775,"Blonde Espresso,In Store,Mobile Order and Pay,Oven-warmed Food,Redeem Rewards,Wireless Hot-Spot"
Franklin & Columbia,"100 E. Franklin Street, Chapel Hill",Chapel Hill,NC,27514,8245-308937,+1 919-932-3824,35.91302,-79.05547,"In Store,Mobile Order and Pay,Nitro Cold Brew,Oven-warmed Food,Redeem Rewards,Starbucks Wi-Fi"
N.C. Cancer Hospital Lobby,"101 Manning Dr, Chapel Hill",Chapel Hill,NC,27514,3048-132884,+1 984-215-3676,35.90396,-79.04939,"Blonde Espresso,In Store,Mobile Order and Pay,Nitro Cold Brew,Oven-warmed Food,Redeem Rewards,Wireless Hot-Spot"
Target UNC Franklin St 3241,"143 W Franklin St, Chapel Hill",Chapel Hill,NC,27516,50539-265964,+1 919-590-4925,35.9126,-79.05714,"Blonde Espresso,In Store,Nitro Cold Brew,Oven-warmed Food,Redeem Rewards"
Harris Teeter Morrisville 104,"4093 Davis Drive, Morrisville",Morrisville,NC,27560,24358-235924,+1 919-380-0354,35.836,-78.85598,"Blonde Espresso,In Store,Mobile Order and Pay,Oven-warmed Food,Redeem Rewards,Wireless Hot-Spot"
Harris Teeter Cary 298,"10140 Green Level Church Road, Cary",Cary,NC,27519,79699-100511,+1 919-460-3126,35.8207,-78.90107,"Blonde Espresso,In Store,Mobile Order and Pay,Oven-warmed Food,Redeem Rewards,Wireless Hot-Spot"
Morrisville Carpenter Rd & Dav,"3608-400 Davis Drive, Morrisville",Morrisville,NC,27560,9657-97677,+1 919-460-1170,35.82163,-78.84756,"Drive-Thru,In Store,Mobile Order and Pay,Nitro Cold Brew,Oven-warmed Food,Redeem Rewards,Starbucks Wi-Fi"
Target Morrisville 2721,"3001 Market Center Dr, Morrisville",Morrisville,NC,27560,16134-157964,+1 919-379-2180,35.80723,-78.81585,"Blonde Espresso,In Store,Oven-warmed Food,Redeem Rewards"
Hwy 55 & High House Rd,"2840 NC Highway 55, Cary",Cary,NC,27519,9364-95870,+1 919-387-3482,35.78966,-78.87007,"Drive-Thru,In Store,Mobile Order and Pay,Nitro Cold Brew,Oven-warmed Food,Redeem Rewards,Starbucks Wi-Fi"
Harris Teeter Cary 138,"98 Cornerstone Dr, Cary",Cary,NC,27519,79397-98082,+1 919-467-1259,35.79027,-78.85201,"Blonde Espresso,In Store,Mobile Order and Pay,Oven-warmed Food,Redeem Rewards,Wireless Hot-Spot"
Wake Forest Baptist MC North T,"1 Medical Center Blvd, Winston-Salem",Winston-Salem,NC,27103,27558-246784,+1 336-713-1847,36.08961,-80.26856,"Blonde Espresso,In Store,Mobile Order and Pay,Nitro Cold Brew,Oven-warmed Food,Redeem Rewards"
Publix Winston-Salem 1475,"34 MILLER ST, Winston-Salem",Winston-Salem,NC,27104,49408-266019,+1 336-724-3707,36.09491,-80.27566,"Blonde Espresso,In Store,Oven-warmed Food"
Harris Teeter Winston-Salem 21,"2281 Cloverdale Ave, Winston-Salem",Winston-Salem,NC,27103,29069-251948,+1 336-777-1075,36.09018,-80.2745,"Blonde Espresso,In Store,Mobile Order and Pay,Oven-warmed Food,Redeem Rewards"
Cloverdale Ave & Miller St,"2283 Cloverdale Avenue, Winston-Salem",Winston-Salem,NC,27103,8517-286640,+1 336-725-6709,36.09042,-80.27502,"Drive-Thru,In Store,Mobile Order and Pay,Nitro Cold Brew,Oven-warmed Food,Redeem Rewards,Starbucks Wi-Fi"
Stratford Rd & Ricks Dr,"263 Harvey St, Winston-Salem",Winston-Salem,NC,27103,25248-239811,+1 336-414-0268,36.0841,-80.29481,"Drive-Thru,In Store,Mobile Order and Pay,Nitro Cold Brew,Oven-warmed Food,Starbucks Wi-Fi"
Peters Creek Parkway & Brewer,"1611 Brewer Rd, Winston-Salem",Winston-Salem,NC,27127,68121-300615,+1 336-968-1739,36.05547,-80.25896,"Drive-Thru,In Store,Mobile Order and Pay,Nitro Cold Brew,Oven-warmed Food,Redeem Rewards,Starbucks Wi-Fi"
Mt Tabor Place & Robinhood Rd,"3331 Robinhood Road, Winston-Salem",Winston-Salem,NC,27106,8448-35099,+1 336-768-1221,36.11634,-80.31262,"In Store,Mobile Order and Pay,Nitro Cold Brew,Oven-warmed Food,Redeem Rewards,Starbucks Wi-Fi"
Frontis Plaza Blvd-Hanes Mall,"2015 Frontis Plaza Boulevard, Winston-Salem",Winston-Salem,NC,27103,8540-63340,+1 336-765-2716,36.062,-80.30405,"In Store,Mobile Order and Pay,Nitro Cold Brew,Oven-warmed Food,Redeem Rewards,Starbucks Wi-Fi"
Reynolda Rd & Radford St,"2898 Reynolda Road, Winston-Salem",Winston-Salem,NC,27106,11926-105253,+1 336-761-3783,36.14427,-80.30047,"Drive-Thru,In Store,Mobile Order and Pay,Oven-warmed Food,Redeem Rewards,Starbucks Wi-Fi"
Harris Teeter Winston-Salem 34,"2835 Reynolda Rd, Winston-Salem",Winston-Salem,NC,27106,26169-237578,+1 336-761-0734,36.14562,-80.29882,"In Store,Mobile Order and Pay,Oven-warmed Food,Redeem Rewards"
Target Winston-Salem SOUTH 108,"1040 Hanes Mall Blvd., Winston-Salem",Winston-Salem,NC,27103,54668-282673,+1 336-774-9687,36.06765,-80.32026,"Blonde Espresso,In Store,Oven-warmed Food,Redeem Rewards"
Target Winston-Salem NORTH 107,"5420 University Pkwy, Winston-Salem",Winston-Salem,NC,27105,16923-166304,+1 336-744-7880,36.16816,-80.27699,"Blonde Espresso,In Store,Oven-warmed Food,Redeem Rewards"
"Jonestown Rd & Hanes Mall, Ext","605 Jonestown Road, Winston-Salem",Winston-Salem,NC,27103,11269-103675,+1 336-765-7540,36.07082,-80.33913,"Drive-Thru,In Store,Mobile Order and Pay,Nitro Cold Brew,Oven-warmed Food,Redeem Rewards,Starbucks Wi-Fi"
"Univ Pkwy & Hanes Mill Rd, Ext","5980 University Parkway, Winston-Salem",Winston-Salem,NC,27105,11640-100682,+1 336-377-2046,36.18792,-80.27681,"Drive-Thru,In Store,Mobile Order and Pay,Nitro Cold Brew,Oven-warmed Food,Redeem Rewards,Starbucks Wi-Fi"
"Lewisville Clemmons Rd, Ext 18","2785 Lewisville-Clemmons Rd, Clemmons",Clemmons,NC,27012,11922-105252,+1 336-766-7866,36.02261,-80.38147,"Drive-Thru,In Store,Mobile Order and Pay,Nitro Cold Brew,Oven-warmed Food,Redeem Rewards,Starbucks Wi-Fi"
Harris Teeter Clemmons 228,"4150 Clemmons Rd., Clemmons",Clemmons,NC,27012,54165-284484,+1 336-778-1445,36.01866,-80.40704,"Blonde Espresso,In Store,Mobile Order and Pay,Oven-warmed Food,Redeem Rewards"
I-85 and Cotton Grove Rd,"77 Plaza Parkway, Lexington",Lexington,NC,27292,59762-292407,+1 336-250-8552,35.78299,-80.25664,"Café Seating,Drive-Thru,In Store,Mobile Order and Pay,Nitro Cold Brew,Outdoor Seating,Oven-warmed Food,Redeem Rewards,Starbucks Wi-Fi"
"Hwy 601 & Hwy, 421 Yadkinville","640 S State St., Yadkinville",Yadkinville,NC,27055,80256-309392,+1 336-968-8223,36.12317,-80.66039,"Café Seating,Drive-Thru,In Store,Mobile Order and Pay,Nitro Cold Brew,Outdoor Seating,Oven-warmed Food,Redeem Rewards,Starbucks Wi-Fi"
Target Gastonia 2565,"425 Cox Rd, Gastonia",Gastonia,NC,28054,16138-100072,+1 704-691-6001,35.26255,-81.13354,"In Store,Oven-warmed Food,Redeem Rewards"
Cox Rd & I-85,"420 Cox Road, Gastonia",Gastonia,NC,28054,18833-188544,+1 704-865-5491,35.26283,-81.1318,"Café Seating,Drive-Thru,In Store,Mobile Order and Pay,Nitro Cold Brew,Outdoor Seating,Oven-warmed Food,Redeem Rewards,Starbucks Wi-Fi"
Harris Teeter Gastonia 281,"3350 Robinwood Dr, Gastonia",Gastonia,NC,28054,47673-259024,+1 704-864-0139,35.21731,-81.15881,"Blonde Espresso,In Store,Mobile Order and Pay,Oven-warmed Food,Redeem Rewards,Wireless Hot-Spot"
Ingles Dallas 146,"715 W Trade St., Dallas",Dallas,NC,28034,19900-201165,+1 704-922-2094,35.31475,-81.18544,"In Store,Oven-warmed Food"
I-85 and Highway 161,"717 York Road, Kings Mountain",Kings Mountain,NC,28086,61408-294745,+1 980-291-2910,35.22864,-81.33261,"Café Seating,Drive-Thru,In Store,Mobile Order and Pay,Nitro Cold Brew,Outdoor Seating,Oven-warmed Food,Redeem Rewards,Starbucks Wi-Fi"
Harris Teeter Belmont 386,"905 South Point Rd., Belmont",Belmont,NC,28012,54167-281984,+1 704-825-6079,35.22369,-81.03749,"Blonde Espresso,In Store,Mobile Order and Pay,Oven-warmed Food,Redeem Rewards,Wireless Hot-Spot"
I-85 & Park Street,"630 Park Street, Belmont",Belmont,NC,28012,52820-283087,+1 704-825-0142,35.25285,-81.0272,"Café Seating,Drive-Thru,In Store,Mobile Order and Pay,Nitro Cold Brew,Outdoor Seating,Oven-warmed Food,Redeem Rewards,Starbucks Wi-Fi"
Charlotte Hwy and Village Harb,"1201 Village Harbor Drive, Lake Wylie",Lake Wylie,SC,29710,55614-288499,+1 704-591-5361,35.11594,-81.07464,"Drive-Thru,In Store,Mobile Order and Pay,Nitro Cold Brew,Oven-warmed Food,Redeem Rewards,Starbucks Wi-Fi"
Ingles Kings Mountain 147,"2111 Shelby Rd, Kings Mountain",Kings Mountain,NC,28086,19898-201167,+1 704-739-2970,35.24337,-81.40527,"In Store,Oven-warmed Food"
Steele Creek and Dixie River,"4820 Berewick Towne Center Drive, Charlotte",Charlotte,NC,28278,55028-280525,+1 980-280-6975,35.16182,-80.97099,"After Hours Wi-Fi,Drive-Thru,In Store,Mobile Order and Pay,Nitro Cold Brew,Oven-warmed Food,Redeem Rewards,Starbucks Wi-Fi"
Harris Teeter Charlotte 3,"4821 Berewick Town Center Dr., Charlotte",Charlotte,NC,28217,48190-261666,+1 704-587-1011,35.16005,-80.97131,"Blonde Espresso,In Store,Mobile Order and Pay,Oven-warmed Food,Redeem Rewards,Wireless Hot-Spot"
"Hwy 16 & I-485, Mountain Islan","9731 Callabridge Ct, Charlotte",Charlotte,NC,28216,63404-297254,+1 704-810-4149,35.3269,-80.94477,"Café Seating,Drive-Thru,In Store,Mobile Order and Pay,Nitro Cold Brew,Oven-warmed Food,Redeem Rewards,Starbucks Wi-Fi"
Harris Teeter Charlotte 366,"4701 Smith Farm Rd., Charlotte",Charlotte,NC,28216,26170-105488,+1 704-392-9690,35.32823,-80.94018,"Blonde Espresso,In Store,Mobile Order and Pay,Nitro Cold Brew,Oven-warmed Food,Redeem Rewards"
Ingles Lincolnton 148,"2130 E Main St, Lincolnton",Lincolnton,NC,28092,22986-226825,+1 704-735-0269,35.47828,-81.22008,"In Store,Oven-warmed Food"
E. Main & Hwy 321,"1434 E Main St, Lincolnton",Lincolnton,NC,28092,56080-289663,+1 704-735-3773,35.47628,-81.23625,"Café Seating,Drive-Thru,In Store,Mobile Order and Pay,Nitro Cold Brew,Outdoor Seating,Oven-warmed Food,Redeem Rewards,Starbucks Wi-Fi"
Harris Teeter Charlotte 88,"13000 S Tryon St, Charlotte",Charlotte,NC,28278,16408-169145,+1 704-587-9970,35.1033,-80.9909,"Blonde Espresso,In Store,Mobile Order and Pay,Nitro Cold Brew,Redeem Rewards"
Hwy 49 & Steelecroft Pkwy,"13129 S. Tryon St., Charlotte",Charlotte,NC,28278,10389-241727,+1 704-588-3062,35.10063,-80.99199,"Drive-Thru,In Store,Mobile Order and Pay,Nitro Cold Brew,Oven-warmed Food,Redeem Rewards"
Target Charlotte SW 2132,"12830 Walker Branch Dr, Charlotte",Charlotte,NC,28273,76601-97457,+1 704-583-2601,35.10033,-80.98506,"In Store,Oven-warmed Food,Redeem Rewards"
"Hwy 73 & Hwy 16, Denver","7365 Olin Way, Denver",Denver,NC,28037,67480-299542,+1 505-785-0949,35.44796,-80.99901,"Café Seating,Drive-Thru,In Store,Mobile Order and Pay,Nitro Cold Brew,Outdoor Seating,Oven-warmed Food,Redeem Rewards,Starbucks Wi-Fi"
Harris Teeter Fort Mill 475,"867 Stockbridge Dr., Fort Mill",Fort Mill,SC,29708,18318-189384,+1 803-548-6612,35.0634,-80.9944,"Blonde Espresso,In Store,Mobile Order and Pay,Nitro Cold Brew,Oven-warmed Food,Redeem Rewards,Wireless Hot-Spot"
Carowinds Amusement Park Main,"14523 CAROWINDS BLVD, Charlotte",Charlotte,NC,28273,47070-249615,+1 704-588-2600,35.1041,-80.94032,"Blonde Espresso,Nitro Cold Brew,Oven-warmed Food"
I-77 and Carowinds,"3686 Foothills Way, Fort Mill",Fort Mill,SC,29708,60029-292513,+1 803-902-1575,35.093,-80.93514,"Drive-Thru,In Store,Mobile Order and Pay,Nitro Cold Brew,Oven-warmed Food,Redeem Rewards,Starbucks Wi-Fi"
"74E & Grove, Shelby","1114 E. Dixon Boulevard, Shelby",Shelby,NC,28152,62269-296043,+1 980-270-5689,35.27266,-81.52386,"Café Seating,Drive-Thru,In Store,Mobile Order and Pay,Nitro Cold Brew,Outdoor Seating,Oven-warmed Food,Redeem Rewards,Starbucks Wi-Fi"
Ingles Shelby 112,"706 E. Dixon Blvd., Shelby",Shelby,NC,28152,66899-300933,+1 704-471-9494,35.27334,-81.52887,"Blonde Espresso,In Store,Nitro Cold Brew,Oven-warmed Food"
Target Charlotte North 2080,"9841 Northlake Ctr Pkwy, Charlotte",Charlotte,NC,28216,76903-128668,+1 704-516-3648,35.34997,-80.85933,"Blonde Espresso,In Store,Nitro Cold Brew,Oven-warmed Food,Redeem Rewards,Wireless Hot-Spot"
Harris Teeter Fort Mill 82,"1750 Hwy 160 W, Fort Mill",Fort Mill,SC,29708,16622-93621,+1 803-396-0440,35.03346,-80.97047,"Blonde Espresso,In Store,Mobile Order and Pay,Nitro Cold Brew,Oven-warmed Food,Redeem Rewards"
Harris Teeter Fayetteville 25,"2800 Raeford Rd, Fayetteville",Fayetteville,NC,28303,72864-87824,+1 910-484-6000,35.04721,-78.92299,"In Store,Mobile Order and Pay,Redeem Rewards"
Walter Reed Rd & Owen Dr,"1445 Walter Reed Road, Fayetteville",Fayetteville,NC,28304,10159-99871,+1 910-485-1084,35.03902,-78.93507,"Café Seating,Drive-Thru,In Store,Mobile Order and Pay,Nitro Cold Brew,Outdoor Seating,Oven-warmed Food,Redeem Rewards,Starbucks Wi-Fi"
Bragg & Sycamore,"3466 Bragg Boulevard, Fayetteville",Fayetteville,NC,28303,71891-306625,,35.07832,-78.93866,"Drive-Thru,Mobile Order and Pay,Nitro Cold Brew,Oven-warmed Food,Redeem Rewards,Starbucks Wi-Fi"
"I-95 & Cedar Creek Rd, Exit 49","1855 Cedar Creek Road, Fayetteville",Fayetteville,NC,28312,61617-294048,+1 910-974-8027,35.01055,-78.82936,"Café Seating,Drive-Thru,In Store,Mobile Order and Pay,Nitro Cold Brew,Outdoor Seating,Oven-warmed Food,Redeem Rewards,Starbucks Wi-Fi"
Ramsey St & Francam Dr,"4401 N Ramsey Street, Fayetteville",Fayetteville,NC,28311,19704-193364,+1 910-488-4783,35.12082,-78.88058,"Café Seating,Drive-Thru,In Store,Mobile Order and Pay,Nitro Cold Brew,Outdoor Seating,Oven-warmed Food,Redeem Rewards,Starbucks Wi-Fi"
Skibo Rd & Lake Valley Dr,"565 Cross Creek Mall, Fayetteville",Fayetteville,NC,28303,9800-96995,+1 910-864-9991,35.07473,-78.96241,"Café Seating,Drive-Thru,In Store,Mobile Order and Pay,Nitro Cold Brew,Outdoor Seating,Oven-warmed Food,Redeem Rewards,Starbucks Wi-Fi"
Skibo & Richwood,"2120 Skibo Road, Fayetteville",Fayetteville,NC,28314,49895-270125,+1 910-633-1949,35.05137,-78.97486,"Café Seating,Drive-Thru,In Store,Mobile Order and Pay,Nitro Cold Brew,Outdoor Seating,Oven-warmed Food,Redeem Rewards,Starbucks Wi-Fi"
Target Fayetteville 755,"2056 Skibo Rd, Fayetteville",Fayetteville,NC,28314,76391-95392,+1 910-860-4400,35.05514,-78.9749,"Blonde Espresso,In Store,Nitro Cold Brew,Oven-warmed Food,Redeem Rewards,Wireless Hot-Spot"
Main Street and Butler,"3063 North Main Street, Hope Mills",Hope Mills,NC,28348,66398-299280,+1 910-312-0001,34.98177,-78.96204,"Café Seating,Drive-Thru,In Store,Mobile Order and Pay,Nitro Cold Brew,Outdoor Seating,Oven-warmed Food,Redeem Rewards,Starbucks Wi-Fi"
Raeford & Strickland,"920 Strickland Bridge Road, Fayetteville",Fayetteville,NC,28304,60582-293657,+1 910-601-1011,35.03969,-79.00019,"Café Seating,Drive-Thru,In Store,Mobile Order and Pay,Nitro Cold Brew,Outdoor Seating,Oven-warmed Food,Redeem Rewards,Starbucks Wi-Fi"
BASE ACCESS South Post Food Co,"1017 Canopy LN, Fort Bragg",Fort Bragg,NC,28310,19630-167545,+1 910-436-2237,35.10304,-79.01448,"Blonde Espresso,In Store,Mobile Order and Pay,Nitro Cold Brew,Oven-warmed Food"
Fort Liberty Exchange Mini Mal,"1013 Reilly Road, Fort Bragg",Fort Bragg,NC,28307,78064-108504,+1 910-436-2200,35.13149,-78.99621,"Blonde Espresso,Drive-Thru,In Store,Mobile Order and Pay,Nitro Cold Brew,Oven-warmed Food,Redeem Rewards,Wireless Hot-Spot"
Rockfish Rd & Belshaw Way,"2941 Town Center Drive, Hope Mills",Hope Mills,NC,28348,68847-303424,+1 910-338-1796,34.98113,-79.01071,"Café Seating,Drive-Thru,In Store,Mobile Order and Pay,Nitro Cold Brew,Outdoor Seating,Oven-warmed Food,Redeem Rewards,Starbucks Wi-Fi"
East Carolina Univ. Joyner Lib,"1000 E 5th Str, Greenville",Greenville,NC,27858,19798-189585,+1 252-328-4855,35.60677,-77.3683,"Blonde Espresso,In Store"
Fort Liberty North Post,"3571 Butner Road, Fort Bragg",Fort Bragg,NC,28310,70010-108337,+1 910-306-3709,35.15761,-78.97399,"Blonde Espresso,In Store,Mobile Order and Pay,Nitro Cold Brew,Oven-warmed Food,Wireless Hot-Spot"
Harris Teeter Fayetteville 393,"3050 Traemoor Village Dr, Fayetteville",Fayetteville,NC,28306,18401-170045,+1 910-424-3505,34.98261,-79.01397,"In Store,Mobile Order and Pay,Nitro Cold Brew,Oven-warmed Food,Redeem Rewards"
Hwy 24 & Brinkley Hill,"2822 NC 24-87, Cameron",Cameron,NC,28326,59763-293753,+1 919-728-9187,35.24406,-79.02311,"Café Seating,Drive-Thru,In Store,Mobile Order and Pay,Nitro Cold Brew,Outdoor Seating,Oven-warmed Food,Redeem Rewards,Starbucks Wi-Fi"
"East Cumberland & Simpson, Ext","818 East Cumberland Street, Dunn",Dunn,NC,28334,61317-294458,+1 910-898-3222,35.30208,-78.60234,"Café Seating,Drive-Thru,In Store,Mobile Order and Pay,Nitro Cold Brew,Outdoor Seating,Oven-warmed Food,Redeem Rewards,Starbucks Wi-Fi"
ECU Student Union,"501 E 10th St, Greenville",Greenville,NC,27858,52894-247304,+1 252-328-4758,35.6056,-77.36926,"Blonde Espresso,In Store,Mobile Order and Pay,Nitro Cold Brew,Oven-warmed Food"
East Carolina Univ. Mobile Tru,"28884 College Hill Drive, Greenville",Greenville,NC,27858,24135-252847,+1 252-328-3663,35.60535,-77.3625,"Blonde Espresso,In Store,Oven-warmed Food"
E. 10th St & Evans St,"100 East 10th Street, Greenville",Greenville,NC,27858,13481-105757,+1 252-695-6435,35.60556,-77.37402,"Drive-Thru,In Store,Mobile Order and Pay,Nitro Cold Brew,Oven-warmed Food,Redeem Rewards,Starbucks Wi-Fi"
Greenville Blvd & Red Banks Rd,"518-B Greenville Blvd. SE, Greenville",Greenville,NC,27858,8582-79241,+1 252-353-2537,35.58252,-77.37366,"Drive-Thru,In Store,Mobile Order and Pay,Nitro Cold Brew,Oven-warmed Food,Redeem Rewards,Starbucks Wi-Fi"
Target Greenville 1022,"3040 S Evans St, Greenville",Greenville,NC,27834,50428-273846,+1 252-355-8020,35.57881,-77.38346,"Blonde Espresso,In Store,Oven-warmed Food,Redeem Rewards"
Harris Teeter Greenville 362,"3040 EVANS ST, Greenville",Greenville,NC,27834,16065-159187,+1 252-353-4400,35.57753,-77.38167,"Blonde Espresso,In Store,Mobile Order and Pay,Nitro Cold Brew,Oven-warmed Food,Redeem Rewards,Wireless Hot-Spot"
Stanton Sq & Arlington Dr,"2205 W. Arlington Blvd., Greenville",Greenville,NC,27834,8962-95337,+1 252-757-3180,35.60592,-77.41193,"Drive-Thru,In Store,Mobile Order and Pay,Nitro Cold Brew,Oven-warmed Food,Redeem Rewards,Starbucks Wi-Fi"
Harris Teeter Greenville 287,"2120 E Firetower Rd, Greenville",Greenville,NC,27858,72594-100650,+1 252-355-0125,35.56734,-77.34977,"Blonde Espresso,In Store,Mobile Order and Pay,Nitro Cold Brew,Oven-warmed Food,Redeem Rewards,Wireless Hot-Spot"
E. Fire Tower Rd & E. Arlingto,"1880 Fire Tower Rd E, Greenville",Greenville,NC,27858,68123-301766,+1 252-417-7855,35.56517,-77.35769,"Drive-Thru,In Store,Mobile Order and Pay,Nitro Cold Brew,Oven-warmed Food,Redeem Rewards,Starbucks Wi-Fi"
S. Memorial Dr & Whitley Dr,"4100 Humber Dr, Unit 100, Winterville",Winterville,NC,28590,27296-246406,+1 252-558-7563,35.55183,-77.40534,"Drive-Thru,In Store,Mobile Order and Pay,Nitro Cold Brew,Oven-warmed Food,Redeem Rewards,Starbucks Wi-Fi"
US64 & NC258,"106 River Oaks Drive, Tarboro",Tarboro,NC,27886,69991-303150,+1 252-774-9842,35.88511,-77.54709,"Drive-Thru,In Store,Mobile Order and Pay,Nitro Cold Brew,Oven-warmed Food,Redeem Rewards,Starbucks Wi-Fi"
Harris Teeter Apex 496,"940 US Hwy 64, Apex",Apex,NC,27523,59269-292600,+1 919-380-1422,35.74567,-78.82214,"Blonde Espresso,In Store,Mobile Order and Pay,Nitro Cold Brew,Oven-warmed Food,Redeem Rewards"
US 64 & Knollwood Dr,"1101 Pine Plaza Drive, Apex",Apex,NC,27523,29148-252724,+1 919-338-3360,35.7465,-78.83024,"Café Seating,Drive-Thru,In Store,Mobile Order and Pay,Nitro Cold Brew,Outdoor Seating,Oven-warmed Food,Redeem Rewards,Starbucks Wi-Fi"
Harris Teeter Apex 58,"750 W Williams St, Apex",Apex,NC,27502,72999-98079,+1 919-362-3782,35.73765,-78.86279,"In Store,Mobile Order and Pay,Redeem Rewards,Wireless Hot-Spot"
US 64 & W Williams St,"1268 W Williams St, Apex",Apex,NC,27502,55618-288664,+1 919-545-4787,35.74673,-78.87319,"Café Seating,Drive-Thru,In Store,Mobile Order and Pay,Nitro Cold Brew,Outdoor Seating,Oven-warmed Food,Redeem Rewards,Starbucks Wi-Fi"
Kildaire Farm & Ten Ten Rd,"3460 Kildaire Farm, Cary",Cary,NC,27518,49535-263928,+1 984-222-5621,35.70491,-78.79541,"Café Seating,Drive-Thru,In Store,Mobile Order and Pay,Nitro Cold Brew,Outdoor Seating,Oven-warmed Food,Redeem Rewards,Starbucks Wi-Fi"
Target Apex 1932,"1201 Beaver Creek Commons Dr, Apex",Apex,NC,27502,76255-94937,+1 919-372-1405,35.7373,-78.8677,"Blonde Espresso,In Store,Nitro Cold Brew,Oven-warmed Food,Redeem Rewards,Wireless Hot-Spot"
Harris Teeter Cary 331,"3430 Ten Ten Rd, Cary",Cary,NC,27518,29953-255606,+1 919-387-8272,35.70291,-78.79279,"In Store,Mobile Order and Pay,Oven-warmed Food,Redeem Rewards"
Harris Teeter Apex 335,"2810 Teachey Place, Apex",Apex,NC,27523,85845-313198,,35.7438,-78.91692,"Blonde Espresso,Mobile Order and Pay,Nitro Cold Brew,Oven-warmed Food"
Harris Teeter Chapel Hill 137,"88 Chatham Downs, Chapel Hill",Chapel Hill,NC,27517,79375-98080,+1 919-960-0275,35.83088,-79.08666,"Blonde Espresso,In Store,Mobile Order and Pay,Nitro Cold Brew,Oven-warmed Food,Redeem Rewards,Wireless Hot-Spot"
Wesleyan Blvd & Sunset Ave,"550 N Wesleyan Blvd, Rocky Mount",Rocky Mount,NC,27804,52924-280930,+1 252-451-0123,35.96101,-77.82184,"Drive-Thru,In Store,Mobile Order and Pay,Nitro Cold Brew,Oven-warmed Food"
Target Rocky Mount 962,"731 Sutters Creek Blvd, Rocky Mount",Rocky Mount,NC,27804,76569-101398,+1 252-443-1195,35.97197,-77.81309,"Blonde Espresso,In Store,Oven-warmed Food,Redeem Rewards"
Raleigh Rd & Heritage Dr,"3401 Raleigh Rd, Wilson",Wilson,NC,27896,13625-97032,+1 252-293-1018,35.74111,-77.96167,"Café Seating,Drive-Thru,In Store,Mobile Order and Pay,Nitro Cold Brew,Outdoor Seating,Oven-warmed Food,Redeem Rewards,Starbucks Wi-Fi"
Target Wilson 2168,"3401 Raleigh Rd Pkwy W, Wilson",Wilson,NC,27896,76707-97493,+1 252-265-4500,35.74037,-77.96527,"Blonde Espresso,In Store,Oven-warmed Food,Redeem Rewards"
I-95 & US 264 Alt,"5019 Raleigh Road, Parkway W, Wilson",Wilson,NC,27896,66098-298374,+1 252-598-3142,35.76332,-78.00768,"Café Seating,Drive-Thru,In Store,Mobile Order and Pay,Nitro Cold Brew,Outdoor Seating,Oven-warmed Food,Redeem Rewards,Starbucks Wi-Fi"
"Mebane Oaks Rd & I-40, Exit 15","3890 Brundage Lane, Mebane",Mebane,NC,27302,25954-242179,+1 336-270-1195,36.07002,-79.27158,"Drive-Thru,In Store,Mobile Order and Pay,Nitro Cold Brew,Oven-warmed Food,Starbucks Wi-Fi"
Rosedale,"9832 Gilead Road, Huntersville",Huntersville,NC,28078,10691-100498,+1 704-948-4278,35.40649,-80.86381,"In Store,Mobile Order and Pay,Nitro Cold Brew,Oven-warmed Food,Redeem Rewards,Starbucks Wi-Fi"
Sam Furr Rd & Hwy 115,"9932 Knockando Lane, Huntersville",Huntersville,NC,28078,14112-99037,+1 704-892-1063,35.44199,-80.85696,"In Store,Mobile Order and Pay,Nitro Cold Brew,Oven-warmed Food,Redeem Rewards,Starbucks Wi-Fi"
Target Huntersville 966,"9801 Sam Furr Rd, Huntersville",Huntersville,NC,28078,76149-89021,+1 704-896-1813,35.4432,-80.86172,"Blonde Espresso,Café Seating,In Store,Nitro Cold Brew,Oven-warmed Food,Redeem Rewards"
Birkdale,"16846B Birkdale Commons Pkwy, Huntersville",Huntersville,NC,28078,8453-35539,+1 704-892-2557,35.44524,-80.88039,"In Store,Mobile Order and Pay,Nitro Cold Brew,Oven-warmed Food,Redeem Rewards,Starbucks Wi-Fi"
Harris Teeter Huntersville 272,"7715 Regency Park Dr, Huntersville",Huntersville,NC,28078,79330-98073,+1 704-892-1197,35.44362,-80.8958,"In Store,Mobile Order and Pay,Redeem Rewards"
I-485 and Prosperity Church,"5920 Highland Shoppes Dr, Charlotte",Charlotte,NC,28269,47827-259906,+1 980-233-1872,35.37159,-80.78505,"Drive-Thru,In Store,Mobile Order and Pay,Nitro Cold Brew,Oven-warmed Food,Redeem Rewards,Starbucks Wi-Fi"
Harris Teeter Charlotte 122,"5810 Highland Shoppes Dr, Charlotte",Charlotte,NC,28269,48920-264924,+1 704-875-0993,35.37114,-80.78352,"Blonde Espresso,In Store,Mobile Order and Pay,Oven-warmed Food,Redeem Rewards"
Harris Teeter Cornelius 416,"21720 Catawba Ave, Cornelius",Cornelius,NC,28031,26803-245327,+1 704-894-5352,35.48122,-80.85784,"In Store,Mobile Order and Pay,Oven-warmed Food,Redeem Rewards"
Lake Norman,"20300 W. Catawba Avenue, Cornelius",Cornelius,NC,28031,8285-286079,+1 704-895-6066,35.48251,-80.87852,"Drive-Thru,In Store,Mobile Order and Pay,Nitro Cold Brew,Oven-warmed Food,Redeem Rewards,Starbucks Wi-Fi"
Harris Teeter Concord 190,"9900-Suite 124 Poplar Tent Rd, Concord",Concord,NC,28027,73802-100510,+1 704-721-0735,35.41734,-80.74402,"In Store,Mobile Order and Pay,Oven-warmed Food,Redeem Rewards"
Harris Teeter Cornelius 179,"19815 N Cove Rd, Cornelius",Cornelius,NC,28031,72924-87821,+1 704-895-5020,35.47901,-80.89432,"In Store,Mobile Order and Pay,Oven-warmed Food,Redeem Rewards"
Harris Teeter Davidson 268,"431 Peninsula Drive, Davidson",Davidson,NC,28036,73878-100513,+1 704-892-0597,35.50078,-80.86014,"In Store,Mobile Order and Pay,Redeem Rewards"
Mallard Creek & Carolina Lilly,"8115 Panara Dr., Charlotte",Charlotte,NC,28262,78367-299521,+1 704-312-8923,35.37006,-80.73361,"Café Seating,Drive-Thru,In Store,Mobile Order and Pay,Nitro Cold Brew,Outdoor Seating,Oven-warmed Food,Redeem Rewards,Starbucks Wi-Fi"
The Arbors,"2121 East Arbors Drive, Charlotte",Charlotte,NC,28262,9437-94799,+1 704-688-0107,35.3376,-80.75749,"In Store,Mobile Order and Pay,Nitro Cold Brew,Oven-warmed Food,Redeem Rewards,Starbucks Wi-Fi"
Speedway Blvd.,"7741 Gateway Lane NW, Concord",Concord,NC,28027,10391-99041,+1 704-979-1982,35.36667,-80.70891,"Drive-Thru,In Store,Mobile Order and Pay,Nitro Cold Brew,Oven-warmed Food,Redeem Rewards,Starbucks Wi-Fi"
Target Kannapolis 2169,"6150 Bayfield Pkwy, Concord",Concord,NC,28027,76716-97703,+1 704-262-6080,35.4303,-80.6981,"Blonde Espresso,In Store,Nitro Cold Brew,Oven-warmed Food,Redeem Rewards"
Kannapolis Parkway,"6065 Bayfield Pkwy, Concord",Concord,NC,28027,11969-100497,+1 704-795-1116,35.41935,-80.67523,"Café Seating,Drive-Thru,In Store,Mobile Order and Pay,Nitro Cold Brew,Outdoor Seating,Oven-warmed Food,Redeem Rewards,Starbucks Wi-Fi"
85 & George Liles,"380 George W. Liles Pkwy NW, Concord",Concord,NC,28027,71679-302190,+1 980-866-0987,35.41525,-80.66747,"Café Seating,Drive-Thru,In Store,Mobile Order and Pay,Nitro Cold Brew,Outdoor Seating,Oven-warmed Food,Redeem Rewards,Starbucks Wi-Fi"
Mount Mourne,"235 Medical Park Road, Mooresville",Mooresville,NC,28117,13421-107187,+1 704-662-8425,35.554,-80.85422,"Café Seating,In Store,Mobile Order and Pay,Nitro Cold Brew,Outdoor Seating,Oven-warmed Food,Redeem Rewards,Starbucks Wi-Fi"
Harris Teeter Concord 68,"358 George W Liles Pkwy, Concord",Concord,NC,28027,26636-93622,+1 704-786-2510,35.41219,-80.66324,"Blonde Espresso,In Store,Mobile Order and Pay,Oven-warmed Food,Redeem Rewards,Wireless Hot-Spot"
Harris Teeter Harrisburg 92,"12190 University City Blvd, Harrisburg",Harrisburg,NC,28075,27160-237499,+1 704-454-9905,35.31765,-80.67451,"Blonde Espresso,In Store,Mobile Order and Pay,Oven-warmed Food,Redeem Rewards,Wireless Hot-Spot"
Highway 49 and Patricia,"4700 Highway 49 South, Harrisburg",Harrisburg,NC,28075,63879-295665,+1 980-710-6002,35.32197,-80.6547,"Drive-Thru,In Store,Mobile Order and Pay,Nitro Cold Brew,Oven-warmed Food,Redeem Rewards,Starbucks Wi-Fi"
Harris Teeter Mooresville 99,"134 Town Center Drive, Mooresville",Mooresville,NC,28117,73916-103336,+1 704-799-1066,35.586,-80.87582,"In Store,Mobile Order and Pay,Oven-warmed Food,Redeem Rewards"
River Highway & Rolling Hill R,"489 River Hwy, Mooresville",Mooresville,NC,28117,8765-202507,+1 704-799-0609,35.5942,-80.86453,"Café Seating,Drive-Thru,In Store,Mobile Order and Pay,Nitro Cold Brew,Outdoor Seating,Oven-warmed Food,Redeem Rewards,Starbucks Wi-Fi"
Target Mooresville 1505,"594 River Hwy, Mooresville",Mooresville,NC,28117,76101-78200,+1 704-799-1233,35.59789,-80.87158,"Blonde Espresso,In Store,Nitro Cold Brew,Oven-warmed Food,Redeem Rewards"
Harris Teeter Harrisburg 46,"9641 BROOKDALE DR, Harrisburg",Harrisburg,NC,28215,48780-264368,+1 704-599-8449,35.28312,-80.6696,"In Store,Mobile Order and Pay,Oven-warmed Food,Redeem Rewards"
Hwy 74 and Indian Trail Fairvi,"13731 E. Independence Blvd, Indian Trail",Indian Trail,NC,28079,58388-292406,+1 704-242-2363,35.08424,-80.6605,"Drive-Thru,In Store,Mobile Order and Pay,Nitro Cold Brew,Oven-warmed Food,Redeem Rewards,Starbucks Wi-Fi"
Sun Valley,"6701 Old Monroe Rd, Indian Trail",Indian Trail,NC,28079,13475-107336,+1 704-225-8134,35.04851,-80.64653,"Drive-Thru,In Store,Mobile Order and Pay,Nitro Cold Brew,Oven-warmed Food,Redeem Rewards,Starbucks Wi-Fi"
Harris Teeter Indian Trail 129,"6610 Old Monroe Rd., Indian Trail",Indian Trail,NC,28079,55626-98068,+1 704-289-1156,35.04843,-80.64766,"In Store,Mobile Order and Pay,Redeem Rewards"
Harris Teeter Matthews 273,"1351 CHESTNUT LANE, Matthews",Matthews,NC,28104,54162-284286,+1 704-234-0405,35.06994,-80.70107,"Blonde Espresso,In Store,Mobile Order and Pay,Oven-warmed Food,Redeem Rewards"
Sycamore Commons,"2233 Matthews Township Parkway, Matthews",Matthews,NC,28105,8697-93960,+1 704-841-1398,35.12803,-80.70285,"In Store,Mobile Order and Pay,Nitro Cold Brew,Oven-warmed Food,Redeem Rewards,Starbucks Wi-Fi"
Target Charlotte SE 918,"1900 Matthews Township Pkwy, Matthews",Matthews,NC,28105,76150-89022,+1 704-845-0948,35.12249,-80.70608,"Blonde Espresso,In Store,Nitro Cold Brew,Oven-warmed Food,Redeem Rewards,Wireless Hot-Spot"
Harris Teeter Matthews 157,"1811 Matthews Township Pkwy, Matthews",Matthews,NC,28105,14981-156052,+1 704-587-1011,35.1251,-80.70968,"Blonde Espresso,In Store,Mobile Order and Pay,Nitro Cold Brew,Oven-warmed Food,Redeem Rewards,Wireless Hot-Spot"
Harris Teeter Mint Hill 474,"7036 Brighton Park Dr, Mint Hill",Mint Hill,NC,28227,24359-235925,+1 704-545-3281,35.17143,-80.66255,"Blonde Espresso,In Store,Mobile Order and Pay,Oven-warmed Food,Redeem Rewards,Wireless Hot-Spot"
Hwy 74 & Windmere - Monroe,"2937 Monroe Way, Monroe",Monroe,NC,28110,15707-161325,+1 704-225-8006,35.02233,-80.57905,"Drive-Thru,In Store,Mobile Order and Pay,Nitro Cold Brew,Oven-warmed Food,Redeem Rewards,Starbucks Wi-Fi"
Target Monroe 2074,"2901 W Hwy 74, Monroe",Monroe,NC,28110,76456-98560,+1 704-225-8378,35.02019,-80.58133,"In Store,Oven-warmed Food,Redeem Rewards,Wireless Hot-Spot"
Target Wesley Chapel 2395,"6350 Weddington Monroe Rd, Wesley Chapel",Wesley Chapel,NC,28104,76939-128669,+1 704-234-5271,34.99955,-80.69679,"Blonde Espresso,In Store,Nitro Cold Brew,Oven-warmed Food,Redeem Rewards,Wireless Hot-Spot"
Harris Teeter Matthews 249,"5920 Weddington Monroe Rd., Wesley Chapel",Wesley Chapel,NC,28104,82171-306643,+1 704-843-4100,35.00001,-80.70007,"Blonde Espresso,In Store,Mobile Order and Pay,Nitro Cold Brew,Oven-warmed Food,Redeem Rewards"
Harris Teeter Charlotte 45,"10616 Providence Road, Charlotte",Charlotte,NC,28277,79297-87751,+1 704-849-2776,35.06645,-80.77174,"Blonde Espresso,In Store,Mobile Order and Pay,Redeem Rewards,Wireless Hot-Spot"
Providence Road and Golf Links,"11510 Waverly Center Dr, Charlotte",Charlotte,NC,28277,29481-252464,+1 980-288-3253,35.05366,-80.76912,"Drive-Thru,In Store,Mobile Order and Pay,Nitro Cold Brew,Oven-warmed Food,Starbucks Wi-Fi"
Ballantyne Commons & Providenc,"5361 Ballantyne Commons Pkwy #100,, Charlotte",Charlotte,NC,28277,78415-303390,+1 704-627-8184,35.06335,-80.77359,"Café Seating,Drive-Thru,In Store,Mobile Order and Pay,Nitro Cold Brew,Outdoor Seating,Oven-warmed Food,Redeem Rewards,Starbucks Wi-Fi"
Harris Teeter Charlotte 440,"11135 Golf Links Dr., Charlotte",Charlotte,NC,28277,56528-289812,+1 704-303-8601,35.05513,-80.77074,"Blonde Espresso,In Store,Mobile Order and Pay,Oven-warmed Food,Redeem Rewards"
Harris Teeter Charlotte 30,"3333 Pineville Matthews Rd, Charlotte",Charlotte,NC,28226,73786-93624,+1 704-544-3340,35.09652,-80.7846,"Blonde Espresso,In Store,Mobile Order and Pay,Nitro Cold Brew,Oven-warmed Food,Redeem Rewards,Wireless Hot-Spot"
Harris Teeter Weddington 343,"13639 Providence Rd, Weddington",Weddington,NC,28104,79359-101268,+1 704-847-5955,35.02247,-80.76123,"In Store,Mobile Order and Pay,Oven-warmed Food,Redeem Rewards,Wireless Hot-Spot"
Harris Teeter Charlotte 4,"7823 COLONY RD, Charlotte",Charlotte,NC,28226,54173-279258,+1 704-341-3688,35.10605,-80.808,"In Store,Mobile Order and Pay,Redeem Rewards"
Piper Glen,"6432 Rea Road, Charlotte",Charlotte,NC,28277,11921-105138,+1 704-542-3721,35.0781,-80.817,"In Store,Mobile Order and Pay,Nitro Cold Brew,Oven-warmed Food,Redeem Rewards,Starbucks Wi-Fi"
Harris Teeter Mooresville 274,"118 Argus Lane, Mooresville",Mooresville,NC,28117,73818-108010,+1 704-799-2004,35.60227,-80.89621,"In Store,Mobile Order and Pay,Redeem Rewards"
Harris Teeter Charlotte 66,"7852 REA RD, Charlotte",Charlotte,NC,28277,48507-263206,+1 704-341-2061,35.0607,-80.81347,"In Store,Mobile Order and Pay,Oven-warmed Food,Redeem Rewards"
Target Charlotte 1087,"7860 Rea Rd, Charlotte",Charlotte,NC,28277,76455-98968,+1 704-542-1856,35.06022,-80.81346,"In Store,Oven-warmed Food,Redeem Rewards,Wireless Hot-Spot"
Stonecrest,"7922 Rea Road, Charlotte",Charlotte,NC,28277,11968-104874,+1 704-543-0364,35.0586,-80.81319,"In Store,Mobile Order and Pay,Nitro Cold Brew,Oven-warmed Food,Redeem Rewards,Starbucks Wi-Fi"
Blakeney,"9820-A Rea Road, Charlotte",Charlotte,NC,28277,10241-99049,+1 704-541-0355,35.03483,-80.8057,"In Store,Mobile Order and Pay,Nitro Cold Brew,Oven-warmed Food,Redeem Rewards,Starbucks Wi-Fi"
Target Charlotte Blakeney 2090,"9870 Rea Rd, Charlotte",Charlotte,NC,28277,76552-97053,+1 704-234-5271,35.03744,-80.80817,"Blonde Espresso,In Store,Nitro Cold Brew,Oven-warmed Food,Redeem Rewards"
"Hwy 150, Sherrills Ford","7925 Village Center North, Sherrills Ford",Sherrills Ford,NC,28673,75048-307500,+1 828-929-4555,35.58456,-80.98748,"Café Seating,Drive-Thru,In Store,Mobile Order and Pay,Nitro Cold Brew,Outdoor Seating,Oven-warmed Food,Redeem Rewards,Starbucks Wi-Fi"
Statesville,"1501 East Broad Street, Statesville",Statesville,NC,28625,9363-94798,+1 704-872-2066,35.79157,-80.86183,"Café Seating,Drive-Thru,In Store,Mobile Order and Pay,Nitro Cold Brew,Oven-warmed Food,Redeem Rewards,Starbucks Wi-Fi"
"Concord, Hwy 29","1490 US Highway 29, Concord",Concord,NC,28027,9570-96614,+1 704-786-8151,35.43958,-80.60592,"Café Seating,Drive-Thru,In Store,Mobile Order and Pay,Nitro Cold Brew,Outdoor Seating,Oven-warmed Food,Redeem Rewards,Starbucks Wi-Fi"
Ingles Statesville 150,"722 Sullivan Rd., Statesville",Statesville,NC,28677,55096-280529,+1 704-872-4039,35.80596,-80.87599,"Blonde Espresso,In Store,Oven-warmed Food"
Tom Short Rd & Rea Rd,"9700 Rea Rd, Waxhaw",Waxhaw,NC,28173,22077-213924,+1 704-844-1038,35.01628,-80.80167,"Drive-Thru,In Store,Mobile Order and Pay,Nitro Cold Brew,Oven-warmed Food,Redeem Rewards,Starbucks Wi-Fi"
Wingate University CAMPUS CENT,"220 N Camden Rd, Wingate",Wingate,NC,28174,51564-267190,+1 704-233-6162,34.98586,-80.44406,"After Hours Wi-Fi,Blonde Espresso,In Store,Mobile Order and Pay,Nitro Cold Brew,Oven-warmed Food,Redeem Rewards"
Harris Teeter Waxhaw 182,"8157 Kesington Drive, Waxhaw",Waxhaw,NC,28173,18564-98074,+1 704-243-1238,34.95403,-80.75927,"Blonde Espresso,In Store,Mobile Order and Pay,Oven-warmed Food,Redeem Rewards,Wireless Hot-Spot"
Harris Teeter Charlotte 11,"15007 John J. Delaney Dr., Charlotte",Charlotte,NC,28277,17807-165784,+1 704-716-2000,35.05287,-80.84908,"Blonde Espresso,In Store,Mobile Order and Pay,Nitro Cold Brew,Oven-warmed Food,Redeem Rewards,Wireless Hot-Spot"
Ballantyne,"13855 Conlan Circle, Charlotte",Charlotte,NC,28277,9362-49959,+1 704-543-1535,35.05526,-80.85138,"Drive-Thru,In Store,Mobile Order and Pay,Nitro Cold Brew,Oven-warmed Food,Redeem Rewards,Starbucks Wi-Fi"
I-40 & Turnersburg Hwy,"187 Turnersburg Hwy, Statesville",Statesville,NC,28625,53855-284887,+1 704-928-8920,35.81304,-80.87651,"Café Seating,Drive-Thru,In Store,Mobile Order and Pay,Nitro Cold Brew,Outdoor Seating,Oven-warmed Food,Redeem Rewards,Starbucks Wi-Fi"
I-85 and Julian Road,"1303 Klumac Road, Salisbury",Salisbury,NC,28147,50828-271685,+1 336-414-5434,35.63822,-80.48701,"Café Seating,Drive-Thru,In Store,Mobile Order and Pay,Nitro Cold Brew,Outdoor Seating,Oven-warmed Food,Redeem Rewards,Starbucks Wi-Fi"
Towne Creek Commons,"916 East Innes Street, Salisbury",Salisbury,NC,28144,9464-96093,+1 704-636-1402,35.65943,-80.46085,"Café Seating,Drive-Thru,In Store,Mobile Order and Pay,Nitro Cold Brew,Oven-warmed Food,Redeem Rewards,Starbucks Wi-Fi"
Publix Charlotte 1442,"11222 PROVIDENCE RD W., Charlotte",Charlotte,NC,28277,49412-266017,+1 704-716-2344,35.04234,-80.84968,"Blonde Espresso,In Store,Oven-warmed Food,Wireless Hot-Spot"
Harris Teeter Charlotte 317,"16625 Lancaster Hwy, Charlotte",Charlotte,NC,28277,73918-103375,+1 704-714-4795,35.02301,-80.8482,"In Store,Mobile Order and Pay,Oven-warmed Food,Redeem Rewards,Wireless Hot-Spot"
"W. Main St & Red Bridge, Locus","11602 Redbridge Blvd, Locust",Locust,NC,28097,65816-300279,+1 704-781-1011,35.25461,-80.45955,"Drive-Thru,In Store,Mobile Order and Pay,Nitro Cold Brew,Oven-warmed Food,Redeem Rewards,Starbucks Wi-Fi"
Carolinas Medical South,"9015 Pineville-Matthews Road, Charlotte",Charlotte,NC,28134,10035-99036,+1 704-540-8710,35.08868,-80.8718,"Drive-Thru,In Store,Mobile Order and Pay,Nitro Cold Brew,Oven-warmed Food,Redeem Rewards,Starbucks Wi-Fi"
Marine Blvd. & Chaney Ave.,"460 Chaney Avenue, Jacksonville",Jacksonville,NC,28540,68421-301442,+1 910-548-7577,34.7551,-77.42376,"After Hours Wi-Fi,Drive-Thru,Mobile Order and Pay,Nitro Cold Brew,Oven-warmed Food,Redeem Rewards,Starbucks Wi-Fi"
Richlands Hwy & Yopp Rd,"2805 Richlands Highway, Jacksonville",Jacksonville,NC,28540,53838-280024,+1 910-915-5132,34.75507,-77.46359,"Drive-Thru,In Store,Mobile Order and Pay,Nitro Cold Brew,Oven-warmed Food,Redeem Rewards,Starbucks Wi-Fi"
Jacksonville Mall & Western Bl,"370 Western Boulevard, Jacksonville",Jacksonville,NC,28546,9801-98437,+1 910-455-8720,34.76486,-77.38258,"Drive-Thru,In Store,Mobile Order and Pay,Nitro Cold Brew,Oven-warmed Food,Redeem Rewards,Starbucks Wi-Fi"
Target Jacksonville 1226,"1395D Western Blvd, Jacksonville",Jacksonville,NC,28546,23889-233572,+1 910-937-6400,34.78774,-77.40264,"Blonde Espresso,In Store,Nitro Cold Brew,Oven-warmed Food,Redeem Rewards,Wireless Hot-Spot"
Western Blvd & Gateway Dr,"1654 Western Boulevard, Lot 2, Jacksonville",Jacksonville,NC,28546,22256-213884,+1 910-650-8660,34.79108,-77.40508,"Drive-Thru,In Store,Mobile Order and Pay,Nitro Cold Brew,Oven-warmed Food,Redeem Rewards,Starbucks Wi-Fi"
NC24 & Piney Green,"237 Freedom Way, Jacksonville",Jacksonville,NC,28544,68008-299970,+1 252-574-6727,34.71688,-77.32338,"Drive-Thru,In Store,Mobile Order and Pay,Nitro Cold Brew,Oven-warmed Food,Redeem Rewards,Starbucks Wi-Fi"
Camp Lejeune Main Exchange Com,"1231 Birch St, Camp Lejeune",Camp Lejeune,NC,28547,23581-230990,+1 910-450-2825,34.67378,-77.33972,"Blonde Espresso,In Store,Nitro Cold Brew,Oven-warmed Food,Wireless Hot-Spot"
Richlands Hwy & Koonce Fork Rd,"7439 Richlands Hwy, Richlands",Richlands,NC,28574,83219-312196,+1 910-260-4523,34.88836,-77.54885,"After Hours Wi-Fi,Café Seating,Drive-Thru,In Store,Mobile Order and Pay,Nitro Cold Brew,Outdoor Seating,Oven-warmed Food,Redeem Rewards,Starbucks Wi-Fi"
NC24 & Queens Creek Rd,"1117 W. Corbett Avenue, Swansboro",Swansboro,NC,28584,68424-303163,+1 984-292-1955,34.70167,-77.14964,"Café Seating,Drive-Thru,In Store,Mobile Order and Pay,Nitro Cold Brew,Outdoor Seating,Oven-warmed Food,Redeem Rewards,Starbucks Wi-Fi"
NC24 & NC58,"101 W. B. McLean Drive, Cape Carteret",Cape Carteret,NC,28584,65428-297612,+1 252-616-6206,34.68964,-77.06856,"Drive-Thru,In Store,Mobile Order and Pay,Nitro Cold Brew,Oven-warmed Food,Redeem Rewards,Starbucks Wi-Fi"
Harris Teeter Hampstead 135,"203 ALSTON BLVD, Hampstead",Hampstead,NC,28443,48914-264647,+1 910-329-0711,34.45185,-77.60307,"Blonde Espresso,In Store,Mobile Order and Pay,Oven-warmed Food,Redeem Rewards"
Hwy 55 & New Hill Road,"185 Grand Hill Place, Holly Springs",Holly Springs,NC,27540,19453-175544,+1 919-557-3246,35.66272,-78.84729,"Café Seating,Drive-Thru,In Store,Mobile Order and Pay,Nitro Cold Brew,Outdoor Seating,Oven-warmed Food,Redeem Rewards,Starbucks Wi-Fi"
Harris Teeter Holly Springs 11,"5277 Sunset Lake Rd, Holly Springs",Holly Springs,NC,27540,79270-93640,+1 919-363-3059,35.66496,-78.79653,"In Store,Mobile Order and Pay,Oven-warmed Food,Redeem Rewards,Wireless Hot-Spot"
Harris Teeter Holly Springs 31,"324 VILLAGE WALK DRIVE, Holly Springs",Holly Springs,NC,28540,55884-289550,+1 919-552-1596,35.6401,-78.83787,"In Store,Mobile Order and Pay,Oven-warmed Food,Redeem Rewards"
Target Holly Springs 2785,"100 Grand Hill Place, Holly Springs",Holly Springs,NC,27540,17058-176749,+1 919-762-3149,35.6292,-78.82152,"Blonde Espresso,In Store,Oven-warmed Food,Redeem Rewards,Wireless Hot-Spot"
Hwy 401 & Purfoy Rd,"1380 North Main St, Fuquay-Varina",Fuquay-Varina,NC,27526,14381-116724,+1 919-557-0533,35.59177,-78.77511,"Café Seating,Drive-Thru,In Store,Mobile Order and Pay,Nitro Cold Brew,Outdoor Seating,Oven-warmed Food,Redeem Rewards,Starbucks Wi-Fi"
Wayne Memorial Dr & Hwy 70,"2116-A Wayne Memorial Dr, Goldsboro",Goldsboro,NC,27534,14555-118464,+1 919-581-0993,35.39748,-77.96352,"Drive-Thru,In Store,Mobile Order and Pay,Nitro Cold Brew,Oven-warmed Food,Redeem Rewards,Starbucks Wi-Fi"
N Berkeley Blvd & Langston Dr,"603 North Berkeley Blvd, Goldsboro",Goldsboro,NC,27534,9838-98423,+1 919-778-7866,35.37639,-77.94175,"Drive-Thru,In Store,Mobile Order and Pay,Nitro Cold Brew,Oven-warmed Food,Redeem Rewards,Starbucks Wi-Fi"
Target Goldsboro 964,"1204 Sunburst Dr, Goldsboro",Goldsboro,NC,27534,76570-101399,+1 919-778-2150,35.38087,-77.93877,"In Store,Oven-warmed Food,Redeem Rewards,Wireless Hot-Spot"
Hwy 70 & Smithfield Crossing E,"110 S. Equity Drive, Smithfield",Smithfield,NC,27577,26655-227604,+1 919-621-4996,35.50607,-78.32145,"Café Seating,Drive-Thru,In Store,Mobile Order and Pay,Nitro Cold Brew,Outdoor Seating,Oven-warmed Food,Redeem Rewards,Starbucks Wi-Fi"
US 70 & Hwy 258,"4177 West Vernon Avenue, Kinston",Kinston,NC,28504,56072-289353,+1 252-933-9857,35.26221,-77.64748,"Drive-Thru,In Store,Mobile Order and Pay,Nitro Cold Brew,Oven-warmed Food,Starbucks Wi-Fi"
Charlotte St.,"62 Charlotte Street, Asheville",Asheville,NC,28801,8598-82600,+1 828-225-3753,35.60138,-82.54708,"In Store,Mobile Order and Pay,Nitro Cold Brew,Oven-warmed Food,Redeem Rewards,Starbucks Wi-Fi"
Ingles Asheville 7,"29 Tunnel Rd, Asheville",Asheville,NC,28805,73885-132946,+1 828-255-8097,35.59571,-82.53545,"In Store,Oven-warmed Food,Wireless Hot-Spot"
Patton Ave and Florida Ave,"946 Patton Avenue, Asheville",Asheville,NC,28806,48422-262924,+1 828-702-9636,35.58676,-82.58748,"Drive-Thru,In Store,Mobile Order and Pay,Nitro Cold Brew,Oven-warmed Food,Redeem Rewards,Starbucks Wi-Fi"
Target Asheville 1807,"115 River Hills Rd, Asheville",Asheville,NC,28805,19919-202925,+1 828-298-1262,35.57564,-82.51961,"Blonde Espresso,In Store,Nitro Cold Brew,Oven-warmed Food,Redeem Rewards"
I-40 & Hendersonville Road,"188 Hendersonville Rd, Asheville",Asheville,NC,28803,63220-297406,+1 828-666-1001,35.56325,-82.54165,"Drive-Thru,In Store,Mobile Order and Pay,Nitro Cold Brew,Oven-warmed Food,Redeem Rewards,Starbucks Wi-Fi"
Ingles Asheville 3,"915 Merrimon Ave, Asheville",Asheville,NC,28804,79308-98053,+1 828-253-1326,35.63052,-82.55224,"In Store,Oven-warmed Food,Wireless Hot-Spot"
"Fairview Rd & I240, River Ridg","211 River Ford Parkway, Asheville",Asheville,NC,28803,71720-306738,+1 828-221-2885,35.56916,-82.50717,"Café Seating,Drive-Thru,In Store,Mobile Order and Pay,Nitro Cold Brew,Outdoor Seating,Oven-warmed Food,Redeem Rewards,Starbucks Wi-Fi"
I-40 & Sweeten Creek,"1 Medical Park Dr., Asheville",Asheville,NC,28803,71721-306739,+1 828-221-0645,35.55265,-82.52029,"Café Seating,Drive-Thru,In Store,Mobile Order and Pay,Nitro Cold Brew,Outdoor Seating,Oven-warmed Food,Redeem Rewards,Starbucks Wi-Fi"
Ingles Asheville 4,"1141 Tunnel Rd, Asheville",Asheville,NC,28805,3921-145304,+1 828-298-1425,35.58577,-82.48835,"Blonde Espresso,In Store,Oven-warmed Food,Wireless Hot-Spot"
Ingles Asheville 62,"575 New Leicester Hwy, Asheville",Asheville,NC,28806,3922-98060,+1 828-225-2756,35.61411,-82.63145,"In Store,Oven-warmed Food,Wireless Hot-Spot"
Ingles Asheville 31,"153 Smokey Park Hwy., Asheville",Asheville,NC,28806,59071-293073,+1 828-667-9306,35.56555,-82.62946,"In Store,Nitro Cold Brew,Oven-warmed Food,Wireless Hot-Spot"
Parkway Centre,"1378 Hendersonville Road, Asheville",Asheville,NC,28803,2862-83232,+1 828-274-2689,35.52365,-82.52905,"Drive-Thru,In Store,Mobile Order and Pay,Nitro Cold Brew,Oven-warmed Food,Redeem Rewards,Starbucks Wi-Fi"
Smokey Park Hwy and I-40,"275 Smokey Park Highway, Asheville",Asheville,NC,28806,59002-292519,+1 828-337-5170,35.56145,-82.63347,"Drive-Thru,In Store,Mobile Order and Pay,Nitro Cold Brew,Oven-warmed Food,Redeem Rewards"
Ingles Asheville 24,"863 BREVARD RD., Asheville",Asheville,NC,28806,49575-269344,+1 828-665-0787,35.53072,-82.60722,"Blonde Espresso,In Store,Oven-warmed Food"
Ingles Asheville 30,"1865 Hendersonville Rd, Asheville",Asheville,NC,28803,72571-98062,+1 828-274-0804,35.50011,-82.5237,"In Store,Oven-warmed Food,Wireless Hot-Spot"
Ingles Candler 134,"1572 Sand Hill Rd, Candler",Candler,NC,28715,28688-237571,+1 828-665-2861,35.54397,-82.65929,"Blonde Espresso,In Store,Oven-warmed Food"
Ingles Weaverville 180,"140 Weaver Blvd, Weaverville",Weaverville,NC,28787,73930-135204,+1 828-645-2902,35.70271,-82.56695,"Blonde Espresso,In Store,Oven-warmed Food,Wireless Hot-Spot"
"I-26 & Weaver Blvd, Weavervill","89 Weaver Blvd, Weaverville",Weaverville,NC,28787,58503-290474,,35.7049,-82.56786,"After Hours Wi-Fi,Café Seating,Drive-Thru,In Store,Mobile Order and Pay,Nitro Cold Brew,Outdoor Seating,Oven-warmed Food,Redeem Rewards,Starbucks Wi-Fi"
Ingles Arden 130,"301 Long Shoals Rd, Arden",Arden,NC,28704,72992-97702,+1 828-681-5173,35.47969,-82.54949,"In Store,Oven-warmed Food,Wireless Hot-Spot"
Ingles Arden 137,"352 Airport Rd., Arden",Arden,NC,28704,65045-299248,+1 828-684-6335,35.4503,-82.53101,"Blonde Espresso,Nitro Cold Brew,Wireless Hot-Spot"
Target Asheville 2011,"15 McKenna Rd, Arden",Arden,NC,28704,76409-95670,+1 828-681-0341,35.44889,-82.5366,"Blonde Espresso,In Store,Nitro Cold Brew,Oven-warmed Food,Redeem Rewards,Wireless Hot-Spot"
Airport Road and McKenna Road,"421 Airport Road, Arden",Arden,NC,28704,29388-253485,+1 828-684-2741,35.4456,-82.53276,"Café Seating,Drive-Thru,In Store,Mobile Order and Pay,Nitro Cold Brew,Outdoor Seating,Oven-warmed Food,Redeem Rewards,Starbucks Wi-Fi"
Ingles Fletcher 43,"2901 Hendersonville Rd, Fletcher",Fletcher,NC,28732,79298-98061,+1 828-684-5916,35.44206,-82.50582,"In Store,Oven-warmed Food,Wireless Hot-Spot"
Ingles Black Mountain 8,"550 HIGHWAY 9, Black Mountain",Black Mountain,NC,28711,15941-145305,+1 828-669-6700,35.60879,-82.3209,"In Store,Oven-warmed Food,Wireless Hot-Spot"
Hwy 9 & I-40,"203 Highway 9, Black Mountain",Black Mountain,NC,28711,54439-285984,+1 828-669-2973,35.61479,-82.31857,"Drive-Thru,In Store,Mobile Order and Pay,Nitro Cold Brew,Oven-warmed Food,Redeem Rewards,Starbucks Wi-Fi"
Ingles Mills River 133,"3338 Boylston Hwy, Mills River",Mills River,NC,28759,19011-197245,+1 828-891-3260,35.40041,-82.57018,"In Store,Oven-warmed Food,Wireless Hot-Spot"
Ingles Mars Hill 80,"225 CARL ELLER RD, Mars Hill",Mars Hill,NC,28754,51182-277289,+1 828-689-5980,35.82473,-82.54318,"Blonde Espresso,In Store,Oven-warmed Food"
Ingles Marshall 28,"5580 US 2570, Marshall",Marshall,NC,28753,66895-300726,+1 828-649-3266,35.81311,-82.67088,"Blonde Espresso,In Store,Nitro Cold Brew,Oven-warmed Food,Wireless Hot-Spot"
Ingles Canton 55,"630 Champion Dr, Canton",Canton,NC,28716,3944-147046,+1 828-648-3200,35.53899,-82.8446,"In Store,Oven-warmed Food,Wireless Hot-Spot"
Ingles Hendersonville 179,"3643 Howard Gap Rd, Hendersonville",Hendersonville,NC,28792,4184-98065,+1 828-696-2521,35.34797,-82.43028,"In Store,Oven-warmed Food,Wireless Hot-Spot"
Four Seasons Boulevard & I-26,"103 Mitchelle Drive, Hendersonville",Hendersonville,NC,28792,27876-245464,+1 828-785-9285,35.33783,-82.44316,"Café Seating,Drive-Thru,In Store,Mobile Order and Pay,Nitro Cold Brew,Outdoor Seating,Oven-warmed Food,Redeem Rewards,Starbucks Wi-Fi"
Ingles Hendersonville 11,"1980 Asheville Hwy, Hendersonville",Hendersonville,NC,28792,3967-98055,+1 828-692-0456,35.32734,-82.4674,"In Store,Oven-warmed Food"
Ingles Hendersonville 77,"625 SPARTANBURG HWY, Hendersonville",Hendersonville,NC,28792,50887-276464,+1 828-692-1368,35.30702,-82.45595,"Blonde Espresso,In Store,Oven-warmed Food"
I-26 & Upward Rd,"41 Upward Crossing Drive, Flat Rock",Flat Rock,NC,28731,71723-306740,+1 828-293-8100,35.29746,-82.41028,"Drive-Thru,Mobile Order and Pay,Nitro Cold Brew,Oven-warmed Food,Redeem Rewards,Starbucks Wi-Fi"
Ingles Flat Rock 177,"220 Highland Lake Rd, Flat Rock",Flat Rock,NC,28731,73927-98066,+1 828-692-1335,35.28965,-82.43032,"In Store,Oven-warmed Food,Wireless Hot-Spot"
Ingles Lake Lure 127,"276 Hwy 9, Lake Lure",Lake Lure,NC,28139,63709-298255,+1 828-625-0258,35.41081,-82.19842,Nitro Cold Brew
Ingles Shelby 12,"1650 W Dixon Blvd, Shelby",Shelby,NC,28152,29756-254873,+1 704-482-7761,35.29636,-81.57228,"Blonde Espresso,In Store,Oven-warmed Food,Redeem Rewards,Wireless Hot-Spot"
Gardner Webb University,"131 Tucker Dr, Shelby",Shelby,NC,28152,72281-306362,+1 704-406-3227,35.24669,-81.66955,"Blonde Espresso,Café Seating,Nitro Cold Brew,Oven-warmed Food"
I-85 & Floyd Baker Blvd,"1501 W Floyd Baker Blvd., Gaffney",Gaffney,SC,29341,69407-304001,+1 864-761-1238,35.08784,-81.66145,"Drive-Thru,In Store,Mobile Order and Pay,Nitro Cold Brew,Oven-warmed Food,Redeem Rewards,Starbucks Wi-Fi"
Gaffney,"102 Lemmons Lane, Gaffney",Gaffney,SC,29341,10469-100550,+1 864-488-1475,35.08068,-81.70509,"Drive-Thru,In Store,Mobile Order and Pay,Nitro Cold Brew,Oven-warmed Food,Redeem Rewards,Starbucks Wi-Fi"
Ingles Forest City 27,"765 S Church St, Forest City",Forest City,NC,28043,17897-182671,+1 828-245-1256,35.32201,-81.88175,"Blonde Espresso,In Store,Oven-warmed Food"
"Hwy 74 Alt & Sparks, Forest Ci","182 Sparks Drive, Forest City",Forest City,NC,28043,63423-297335,+1 828-666-7389,35.33969,-81.90007,"Café Seating,Drive-Thru,In Store,Mobile Order and Pay,Nitro Cold Brew,Outdoor Seating,Oven-warmed Food,Redeem Rewards,Starbucks Wi-Fi"
"24th & Springs, Hickory","2395 Springs Road NE, Hickory",Hickory,NC,28601,69592-303410,+1 828-666-1184,35.75296,-81.28784,"Café Seating,Drive-Thru,In Store,Mobile Order and Pay,Nitro Cold Brew,Outdoor Seating,Oven-warmed Food,Redeem Rewards,Starbucks Wi-Fi"
"70 & McDonald Pkwy, Hickory","2251 US Hwy 70 SE, Hickory",Hickory,NC,28602,69060-303129,+1 828-358-0006,35.70351,-81.29611,"Café Seating,Drive-Thru,In Store,Mobile Order and Pay,Nitro Cold Brew,Outdoor Seating,Oven-warmed Food,Redeem Rewards,Starbucks Wi-Fi"
NC-127 & Rink Dam,"81 Rink Dam Rd., Taylorsville",Taylorsville,NC,28681,69599-304669,+1 828-848-4044,35.81582,-81.30632,"Café Seating,Drive-Thru,In Store,Mobile Order and Pay,Nitro Cold Brew,Outdoor Seating,Oven-warmed Food,Redeem Rewards,Starbucks Wi-Fi"
Target Hickory 1181,"1910 Catawba Valley Blvd SE, Hickory",Hickory,NC,28602,23886-233570,+1 828-267-0032,35.70219,-81.30737,"Blonde Espresso,In Store,Oven-warmed Food,Redeem Rewards"
Lenoir Rhyne Blvd & I-40,"1186 Lenoir Rhyne Blvd, Hickory",Hickory,NC,28602,14515-118344,+1 828-322-8019,35.71567,-81.31399,"Café Seating,Drive-Thru,In Store,Mobile Order and Pay,Nitro Cold Brew,Outdoor Seating,Oven-warmed Food,Redeem Rewards,Starbucks Wi-Fi"
"I-95 & Fayetteville Rd, Exit 2","5084 Kahn Drive, Lumberton",Lumberton,NC,28358,19348-136169,+1 910-739-7914,34.66573,-79.00679,"Café Seating,Drive-Thru,In Store,Mobile Order and Pay,Nitro Cold Brew,Outdoor Seating,Oven-warmed Food,Redeem Rewards,Starbucks Wi-Fi"
W. 3rd & Odom St.,"505 W. Third Street, Pembroke",Pembroke,NC,28372,84956-312197,+1 910-260-4522,34.68298,-79.19916,"Café Seating,Drive-Thru,In Store,Mobile Order and Pay,Nitro Cold Brew,Outdoor Seating,Oven-warmed Food,Redeem Rewards,Starbucks Wi-Fi"
UNC Pembroke Student Center,"Faculty Row, Pembroke",Pembroke,NC,28372,15952-159190,+1 910-775-4197,34.68701,-79.20376,"Blonde Espresso,In Store,Mobile Order and Pay,Nitro Cold Brew,Oven-warmed Food,Redeem Rewards,Wireless Hot-Spot"
I-95 & Radford,"709 Radford Blvd, Dillon",Dillon,SC,29536,59764-293408,+1 843-506-9890,34.43789,-79.37117,"Café Seating,Drive-Thru,In Store,Mobile Order and Pay,Nitro Cold Brew,Outdoor Seating,Oven-warmed Food,Redeem Rewards,Starbucks Wi-Fi"
Harris Teeter Clayton 229,"67 Flowers Crossroads Wy, Clayton",Clayton,NC,27527,19321-195825,+1 919-359-8023,35.65595,-78.3474,"Blonde Espresso,In Store,Mobile Order and Pay,Oven-warmed Food,Redeem Rewards,Wireless Hot-Spot"
Martin Luther King Jr. Blvd &,"3182 Martin Luther King Jr Blvd, New Bern",New Bern,NC,28562,25484-227605,+1 252-775-8605,35.10227,-77.08978,"Drive-Thru,In Store,Mobile Order and Pay,Nitro Cold Brew,Oven-warmed Food"
Target New Bern 1015,"3410 Dr Martin Luther King Blvd, New Bern",New Bern,NC,28562,76568-101400,+1 252-638-2954,35.10167,-77.09639,"Blonde Espresso,In Store,Oven-warmed Food,Redeem Rewards"
Harris Teeter New Bern 421,"3562 Martin Luther King Jr Blvd, New Bern",New Bern,NC,28562,73729-108017,+1 252-497-2113,35.09428,-77.13191,"Blonde Espresso,In Store,Mobile Order and Pay,Oven-warmed Food,Redeem Rewards,Wireless Hot-Spot"
Harris Teeter New Bern 139,"2032 Waterscape Way, New Bern",New Bern,NC,28562,29948-255746,+1 252-631-5226,35.03396,-77.01272,"Blonde Espresso,In Store,Mobile Order and Pay,Oven-warmed Food,Redeem Rewards"
NC70 & Catawba,"424 US Highway 70, Havelock",Havelock,NC,28532,68468-303173,+1 252-733-0861,34.90786,-76.93447,"Drive-Thru,In Store,Mobile Order and Pay,Nitro Cold Brew,Oven-warmed Food,Redeem Rewards,Starbucks Wi-Fi"
Hickory North,"1342 2nd St., NE, Hickory",Hickory,NC,28601,11214-96961,+1 828-322-3451,35.75115,-81.33583,"Café Seating,Drive-Thru,In Store,Mobile Order and Pay,Nitro Cold Brew,Outdoor Seating,Oven-warmed Food,Redeem Rewards,Starbucks Wi-Fi"
"Hwy 321 & 2nd Ave, Hickory","204 Highway 321 NW, Hickory",Hickory,NC,28601,69082-303982,+1 828-666-1180,35.7353,-81.36504,"Café Seating,Drive-Thru,In Store,Mobile Order and Pay,Nitro Cold Brew,Outdoor Seating,Oven-warmed Food,Redeem Rewards,Starbucks Wi-Fi"
"321 & S. Main, Granite Falls","4763 Hickory Blvd., Granite Falls",Granite Falls,NC,28630,75050-307202,+1 828-229-8161,35.77786,-81.39622,"Café Seating,Drive-Thru,In Store,Mobile Order and Pay,Nitro Cold Brew,Outdoor Seating,Oven-warmed Food,Redeem Rewards,Starbucks Wi-Fi"
Seehorn St & Blowing Rock Road,"346 Blowing Rock Boulevard, Lenoir",Lenoir,NC,28645,58839-292408,+1 828-757-8788,35.92034,-81.52431,"Café Seating,Drive-Thru,In Store,Mobile Order and Pay,Nitro Cold Brew,Outdoor Seating,Oven-warmed Food,Redeem Rewards,Starbucks Wi-Fi"
I-40 and Sterling,"111 Bush Drive, Morganton",Morganton,NC,28655,62536-295529,+1 828-818-9131,35.72387,-81.6558,"Café Seating,Drive-Thru,In Store,Mobile Order and Pay,Nitro Cold Brew,Outdoor Seating,Oven-warmed Food,Redeem Rewards,Starbucks Wi-Fi"
Harris Teeter Carthage 212,"400 Mill Creek Rd., Carthage",Carthage,NC,28327,61807-295445,+1 910-246-0710,35.22626,-79.3955,"Blonde Espresso,Mobile Order and Pay,Nitro Cold Brew,Oven-warmed Food,Redeem Rewards"
17th & Hospital,"2018 S 16th St, Wilmington",Wilmington,NC,28401,57882-291232,+1 910-515-9051,34.20867,-77.92565,"After Hours Wi-Fi,Café Seating,Drive-Thru,In Store,Mobile Order and Pay,Nitro Cold Brew,Outdoor Seating,Oven-warmed Food,Redeem Rewards,Starbucks Wi-Fi"
Target Southern Pines T-2887,"305 Carolina Green Pkwy, Southern Pines",Southern Pines,NC,28387,86517-306241,,35.16748,-79.41643,"Blonde Espresso,Café Seating,In Store,Nitro Cold Brew,Oven-warmed Food,Redeem Rewards"
Hwy 15-501 & Columbus Dr,"110 Columbus Drive, Aberdeen",Aberdeen,NC,28315,10387-100533,+1 910-692-2351,35.15779,-79.41946,"Café Seating,Drive-Thru,In Store,Mobile Order and Pay,Nitro Cold Brew,Outdoor Seating,Oven-warmed Food,Redeem Rewards,Starbucks Wi-Fi"
Harris Teeter Aberdeen 29,"11109 US Hwy 15-501, Aberdeen",Aberdeen,NC,28315,66644-297604,+1 910-692-7029,35.15624,-79.41634,"Blonde Espresso,Mobile Order and Pay,Nitro Cold Brew,Oven-warmed Food,Redeem Rewards,Wireless Hot-Spot"
Oleander and Independence,"3502 Oleander Drive, Wilmington",Wilmington,NC,28403,18295-181084,+1 910-392-1507,34.21697,-77.90691,"Café Seating,Drive-Thru,In Store,Mobile Order and Pay,Nitro Cold Brew,Outdoor Seating,Oven-warmed Food,Redeem Rewards,Starbucks Wi-Fi"
Harris Teeter Wilmington 158,"820 S College Rd, Wilmington",Wilmington,NC,28403,23185-130524,+1 910-452-9242,34.21986,-77.88587,"Blonde Espresso,In Store,Mobile Order and Pay,Oven-warmed Food,Redeem Rewards,Wireless Hot-Spot"
Independence & 17th,"1406 Barclay Pointe Blvd, Wilmington",Wilmington,NC,28412,50268-270544,+1 910-515-2335,34.18122,-77.9191,"Café Seating,Drive-Thru,In Store,Mobile Order and Pay,Nitro Cold Brew,Outdoor Seating,Oven-warmed Food,Redeem Rewards,Starbucks Wi-Fi"
NC 211 & Main St,"270 Ivey Lane, Pinehurst",Pinehurst,NC,28374,61705-295187,+1 910-687-6005,35.20421,-79.48408,"Café Seating,Drive-Thru,In Store,Mobile Order and Pay,Nitro Cold Brew,Outdoor Seating,Oven-warmed Food,Redeem Rewards,Starbucks Wi-Fi"
Harris Teeter Pinehurst 80,"305 Ivey Ln, Pinehurst",Pinehurst,NC,28374,27170-237504,+1 910-255-0104,35.20551,-79.48429,"Blonde Espresso,In Store,Mobile Order and Pay,Oven-warmed Food,Redeem Rewards"
S. Horner Blvd & Rosser Rd.,"2905 Horner Boulevard, Sanford",Sanford,NC,27332,29150-252744,+1 910-759-0647,35.45364,-79.1373,"Café Seating,Drive-Thru,In Store,Mobile Order and Pay,Nitro Cold Brew,Outdoor Seating,Oven-warmed Food,Redeem Rewards,Starbucks Wi-Fi"
Harris Teeter Wilmington 264,"3860 Carolina Beach Road, Wilmington",Wilmington,NC,28412,66646-300701,+1 910-444-0220,34.17419,-77.92499,"Blonde Espresso,In Store,Mobile Order and Pay,Nitro Cold Brew,Oven-warmed Food,Redeem Rewards"
Harris Teeter Wilmington 441,"2800 S College Rd, Wilmington",Wilmington,NC,28412,5061-141305,+1 910-791-1392,34.19507,-77.88949,"Blonde Espresso,In Store,Mobile Order and Pay,Oven-warmed Food,Redeem Rewards"
Target Wilmington 1107,"4711 New Centre Drive, Wilmington",Wilmington,NC,28405,54679-282265,+1 910-395-5057,34.24811,-77.88152,"Blonde Espresso,In Store,Nitro Cold Brew,Oven-warmed Food,Redeem Rewards"
UNCW The Hub,"601 S COLLEGE RD, Wilmington",Wilmington,NC,28403,51553-258144,+1 910-962-7788,34.22088,-77.87159,"Blonde Espresso,In Store,Oven-warmed Food"
S College Rd & New Centre Dr,"311 S College Dr, Wilmington",Wilmington,NC,28403,8518-193866,+1 910-350-8943,34.23678,-77.87127,"Café Seating,Drive-Thru,In Store,Mobile Order and Pay,Nitro Cold Brew,Outdoor Seating,Oven-warmed Food,Redeem Rewards,Starbucks Wi-Fi"
US1 & Spring Lane,"826 Spring Lane, Sanford",Sanford,NC,27330,67828-300154,+1 919-842-3282,35.48755,-79.19358,"Café Seating,Drive-Thru,In Store,Mobile Order and Pay,Nitro Cold Brew,Outdoor Seating,Oven-warmed Food,Redeem Rewards,Starbucks Wi-Fi"
Harris Teeter Leland 225,"2021 Olde Regent Way, Leland",Leland,NC,28451,29082-105498,+1 910-371-3944,34.21938,-78.01925,"Blonde Espresso,In Store,Mobile Order and Pay,Oven-warmed Food,Redeem Rewards,Wireless Hot-Spot"
US17 & Ploof Rd,"3572 Leland Town Center Drive, Leland",Leland,NC,28451,54435-285775,+1 910-685-2573,34.21461,-78.02002,"After Hours Wi-Fi,Café Seating,Drive-Thru,In Store,Mobile Order and Pay,Nitro Cold Brew,Outdoor Seating,Oven-warmed Food,Redeem Rewards,Starbucks Wi-Fi"
Eastwood Rd & Autumn Hall,"5605 Currituck Drive, Wilmington",Wilmington,NC,28403,8487-292886,+1 910-509-0332,34.23578,-77.84625,"Café Seating,Drive-Thru,In Store,Mobile Order and Pay,Nitro Cold Brew,Outdoor Seating,Oven-warmed Food,Redeem Rewards,Starbucks Wi-Fi"
Harris Teeter Wilmington 210,"6805 Parker Farm Rd, Wilmington",Wilmington,NC,28405,23661-94455,+1 910-256-1071,34.23616,-77.8312,"Blonde Espresso,In Store,Mobile Order and Pay,Oven-warmed Food,Redeem Rewards,Wireless Hot-Spot"
Carolina Beach & Piner Road,"5521 Carolina Beach Rd., Wilmington",Wilmington,NC,28412,56880-289884,+1 910-395-9100,34.13789,-77.89343,"Café Seating,Drive-Thru,In Store,Mobile Order and Pay,Nitro Cold Brew,Outdoor Seating,Oven-warmed Food,Redeem Rewards,Starbucks Wi-Fi"
Military Cutoff & Sir Tyler Dr,"971 Military Cutoff Rd, Wilmington",Wilmington,NC,28405,8544-290830,+1 910-256-2097,34.24287,-77.82704,"Café Seating,Drive-Thru,In Store,Mobile Order and Pay,Nitro Cold Brew,Outdoor Seating,Oven-warmed Food,Redeem Rewards,Starbucks Wi-Fi"
Harris Teeter Wilmington 301,"1940 Eastwood Rd, Wilmington",Wilmington,NC,28403,19555-100653,+1 910-256-2015,34.221,-77.82222,"Blonde Espresso,In Store,Mobile Order and Pay,Oven-warmed Food,Redeem Rewards,Wireless Hot-Spot"
Harris Teeter Wilmington 96,"5920 Carolina Beach Road, Wilmington",Wilmington,NC,28412,23651-100652,+1 910-796-3091,34.12475,-77.90247,"Blonde Espresso,In Store,Mobile Order and Pay,Oven-warmed Food,Redeem Rewards,Wireless Hot-Spot"
Hwy 17 & Middle Sound Loop,"7201 Market Street, Wilmington",Wilmington,NC,28411,57458-288956,+1 910-524-9363,34.27276,-77.81893,"Café Seating,Drive-Thru,In Store,Mobile Order and Pay,Nitro Cold Brew,Outdoor Seating,Oven-warmed Food,Redeem Rewards,Starbucks Wi-Fi"
Harris Teeter Wilmington 191,"8260 Market St, Wilmington",Wilmington,NC,28411,66647-300277,+1 910-681-0571,34.29798,-77.79026,"Blonde Espresso,In Store,Mobile Order and Pay,Nitro Cold Brew,Oven-warmed Food,Redeem Rewards,Wireless Hot-Spot"
US17 & Country Club,"17064 US Hwy 17, Hampstead",Hampstead,NC,28443,68574-303200,+1 910-222-8184,34.39117,-77.68108,"Café Seating,Drive-Thru,In Store,Mobile Order and Pay,Nitro Cold Brew,Outdoor Seating,Oven-warmed Food,Redeem Rewards,Starbucks Wi-Fi"
Southport Supply & Long Beach,"5010 Southport Crossing Way, Southport",Southport,NC,28461,71122-304044,+1 910-946-5012,33.95378,-78.05094,"Café Seating,Drive-Thru,In Store,Mobile Order and Pay,Nitro Cold Brew,Outdoor Seating,Oven-warmed Food,Redeem Rewards,Starbucks Wi-Fi"
Ingles Brevard 67,"710 N Broad St, Brevard",Brevard,NC,28712,79222-98063,+1 828-883-2377,35.24057,-82.72713,"Blonde Espresso,In Store,Oven-warmed Food,Wireless Hot-Spot"
N. Broad St and Hendersonville,"192 Asheville Highway, Brevard",Brevard,NC,28712,58900-292515,+1 828-553-5290,35.24471,-82.72355,"Café Seating,Drive-Thru,In Store,Mobile Order and Pay,Nitro Cold Brew,Outdoor Seating,Oven-warmed Food,Redeem Rewards,Starbucks Wi-Fi"
Ingles Cashiers 110,"230 US 64 E, Cashiers",Cashiers,NC,28717,18447-186744,+1 828-743-3801,35.11413,-83.09856,"In Store,Oven-warmed Food,Wireless Hot-Spot"
Ingles Waynesville 58,"1678 Brown Ave., Waynesville",Waynesville,NC,28786,55094-286291,+1 828-456-8776,35.47014,-83.00425,"Blonde Espresso,In Store,Oven-warmed Food"
Ingles Travelers Rest 206,"1500 Greer Hwy, Travelers Rest",Travelers Rest,SC,29690,63714-298257,+1 864-834-5937,34.99245,-82.46923,"Café Seating,In Store,Nitro Cold Brew,Outdoor Seating,Oven-warmed Food,Starbucks Wi-Fi"
Russ Ave & Howell Mill Rd,"660 Russ Avenue, Waynesville",Waynesville,NC,28786,55144-285765,+1 828-456-5656,35.50213,-82.98866,"Drive-Thru,In Store,Mobile Order and Pay,Nitro Cold Brew,Oven-warmed Food,Redeem Rewards,Starbucks Wi-Fi"
Ingles Waynesville 23,"201 Barber Blvd, Waynesville",Waynesville,NC,28786,73925-98097,+1 828-456-7599,35.50406,-82.98809,"Blonde Espresso,In Store,Oven-warmed Food,Wireless Hot-Spot"
Ingles Pickens 17,"502 Ann St, Pickens",Pickens,SC,29671,25332-237790,+1 864-878-7906,34.89304,-82.70917,"In Store,Oven-warmed Food"
Hwy 24 & Leonard Ave,"617 NC-24, Albemarle",Albemarle,NC,28001,69590-302235,+1 980-581-2391,35.34406,-80.17641,"Café Seating,Drive-Thru,In Store,Mobile Order and Pay,Nitro Cold Brew,Outdoor Seating,Oven-warmed Food,Redeem Rewards,Starbucks Wi-Fi"
W Ehringhaus St,"1313 W Ehringhaus St, Elizabeth City",Elizabeth City,NC,27909,69858-302047,+1 252-679-2237,36.29432,-76.24007,"Drive-Thru,In Store,Mobile Order and Pay,Nitro Cold Brew,Oven-warmed Food"
US 17-BYP & Halstead,"109 Tanglewood Pkwy N, Elizabeth City",Elizabeth City,NC,27909,48154-257485,+1 252-384-8308,36.29377,-76.29739,"Café Seating,Drive-Thru,In Store,Mobile Order and Pay,Nitro Cold Brew,Outdoor Seating,Oven-warmed Food,Starbucks Wi-Fi"
Harris Teeter Corolla 266,"6010 Currituck Clubhouse DR, Corolla",Corolla,NC,27927,23134-98083,+1 252-453-0153,36.30297,-75.80659,"Blonde Espresso,In Store,Mobile Order and Pay,Oven-warmed Food,Redeem Rewards"
Hwy 70 & Gulley Dr,"13024 US Highway 70W, Clayton",Clayton,NC,27520,10390-100531,+1 919-359-0690,35.66649,-78.49774,"Café Seating,Drive-Thru,In Store,Mobile Order and Pay,Nitro Cold Brew,Outdoor Seating,Oven-warmed Food,Redeem Rewards,Starbucks Wi-Fi"
Wendell Falls & Taylor Road,"6008 Taylor Rd, Wendell",Wendell,NC,27591,70519-300907,+1 919-374-4217,35.77632,-78.43283,"Café Seating,Drive-Thru,In Store,Mobile Order and Pay,Nitro Cold Brew,Outdoor Seating,Oven-warmed Food,Redeem Rewards,Starbucks Wi-Fi"
"I-85 & Dabney Dr, Exit 213","1522 Dabney Drive, Henderson",Henderson,NC,27536,54826-286749,+1 252-425-0794,36.33371,-78.43523,"Café Seating,Drive-Thru,In Store,Mobile Order and Pay,Nitro Cold Brew,Outdoor Seating,Oven-warmed Food,Starbucks Wi-Fi"
Harris Teeter Wake Forest 353,"13686 CAPITAL BLVD, Wake Forest",Wake Forest,NC,27587,54163-284287,+1 919-554-3608,36.0065,-78.52037,"Blonde Espresso,In Store,Mobile Order and Pay,Oven-warmed Food,Redeem Rewards"
US-70 & Hestron Dr,"5186 Hwy 70, Morehead City",Morehead City,NC,28557,11761-106174,+1 252-726-5758,34.73918,-76.80854,"Drive-Thru,In Store,Mobile Order and Pay,Nitro Cold Brew,Oven-warmed Food,Redeem Rewards,Starbucks Wi-Fi"
Harris Teeter Morehead City 26,"5000 US HWY 70, Morehead City",Morehead City,NC,28557,48913-264648,+1 252-240-3849,34.7351,-76.79247,"Blonde Espresso,In Store,Mobile Order and Pay,Oven-warmed Food,Redeem Rewards,Wireless Hot-Spot"
I-74 and US 401,"892 Hwy 401 Bypass South, Laurinburg",Laurinburg,NC,28352,66455-297362,+1 910-828-7046,34.76351,-79.4808,"Café Seating,Drive-Thru,In Store,Mobile Order and Pay,Nitro Cold Brew,Outdoor Seating,Oven-warmed Food,Redeem Rewards,Starbucks Wi-Fi"
E Broad Ave & Rockingham Rd,"1217 E. Broad Avenue, Rockingham",Rockingham,NC,28379,68128-300144,+1 910-817-4723,34.92281,-79.75048,"Café Seating,Drive-Thru,In Store,Mobile Order and Pay,Nitro Cold Brew,Outdoor Seating,Oven-warmed Food,Redeem Rewards,Starbucks Wi-Fi"
Pride Drive & Blowing Rock Roa,"1700 Blowing Rock Road, Boone",Boone,NC,28607,47390-257004,+1 828-406-7782,36.19951,-81.65979,"Café Seating,Drive-Thru,In Store,Mobile Order and Pay,Nitro Cold Brew,Outdoor Seating,Oven-warmed Food,Starbucks Wi-Fi"
Harris Teeter Boone 165,"240 Shadowline Dr, Boone",Boone,NC,28607,16318-156564,+1 828-262-3319,36.20281,-81.66214,"Blonde Espresso,In Store,Mobile Order and Pay,Nitro Cold Brew,Oven-warmed Food,Redeem Rewards,Wireless Hot-Spot"
Highway 421 and Stonecrest Oak,"1921 A W. US Highway 421, Wilkesboro",Wilkesboro,NC,28697,57790-291372,+1 336-990-9055,36.14972,-81.20089,"Café Seating,Drive-Thru,In Store,Mobile Order and Pay,Nitro Cold Brew,Outdoor Seating,Oven-warmed Food,Redeem Rewards,Starbucks Wi-Fi"
Campbell Univ. Wiggins Library,"113 Main St, Buies Creek",Buies Creek,NC,27506,23944-230987,+1 910-814-5555,35.4085,-78.73853,"Blonde Espresso,In Store,Oven-warmed Food,Wireless Hot-Spot"
Highway 521 and Jim Wilson,"7716 Charlotte Highway, Indian Land",Indian Land,SC,29707,50741-276111,+1 803-833-6561,34.93814,-80.83653,"Drive-Thru,In Store,Mobile Order and Pay,Nitro Cold Brew,Oven-warmed Food,Redeem Rewards,Starbucks Wi-Fi"
Harris Teeter Fort Mill 372,"6271 Carolina Commons Dr, Fort Mill",Fort Mill,SC,29707,1541-116885,+1 803-802-5300,34.93683,-80.83803,"Blonde Espresso,In Store,Mobile Order and Pay,Oven-warmed Food,Redeem Rewards"
Rockford St and Mountain View,"1996 Rockford Street, Mt. Airy",Mt. Airy,NC,27030,51935-278764,+1 336-840-4530,36.47998,-80.61668,"Café Seating,Drive-Thru,In Store,Mobile Order and Pay,Nitro Cold Brew,Outdoor Seating,Oven-warmed Food,Redeem Rewards,Starbucks Wi-Fi"
"I-77 & CC Camp Rd, Elkin","543 CC Camp Rd, Elkin",Elkin,NC,28621,68663-302005,+1 336-329-8103,36.27832,-80.83365,"Café Seating,Drive-Thru,In Store,Mobile Order and Pay,Nitro Cold Brew,Outdoor Seating,Oven-warmed Food,Redeem Rewards,Starbucks Wi-Fi"
Food City Galax 865,"955-A East Stuart Drive, Galax",Galax,VA,24333,61957-296309,+1 276-238-0700,36.67786,-80.89576,"Mobile Order and Pay,Nitro Cold Brew,Oven-warmed Food"
Ingles Marion 60,"309 W. Henderson St., Marion",Marion,NC,28752,60696-294289,+1 828-652-8588,35.68028,-82.01157,"Blonde Espresso,In Store,Nitro Cold Brew,Oven-warmed Food"
Sugar Hill & I-40,"2487 Sugar Hill Rd, Marion",Marion,NC,28752,80846-309949,+1 828-594-8963,35.65277,-82.03054,"After Hours Wi-Fi,Café Seating,Drive-Thru,In Store,Mobile Order and Pay,Nitro Cold Brew,Outdoor Seating,Oven-warmed Food,Redeem Rewards,Starbucks Wi-Fi"
Shallotte,"117-1 Smith Avenue, Shallotte",Shallotte,NC,28470,62905-295064,+1 910-500-0017,33.98071,-78.37755,"Drive-Thru,In Store,Mobile Order and Pay,Nitro Cold Brew,Oven-warmed Food,Redeem Rewards,Starbucks Wi-Fi"
Target Wake Forest 1504,"12000 Retail Dr, Wake Forest",Wake Forest,NC,27587,76100-78182,+1 919-761-1001,35.97441,-78.54199,"Blonde Espresso,In Store,Nitro Cold Brew,Oven-warmed Food,Redeem Rewards"
Capital Blvd & Calvin Jones,"11720 Retail Drive, Wake Forest",Wake Forest,NC,27587,53826-283825,+1 919-906-3618,35.96619,-78.54338,"Café Seating,Drive-Thru,In Store,Mobile Order and Pay,Nitro Cold Brew,Outdoor Seating,Oven-warmed Food,Redeem Rewards,Starbucks Wi-Fi"
S. Main St & Rogers Rd,"2815 Rogers Road, Wake Forest",Wake Forest,NC,27587,29679-253030,+1 919-971-0664,35.95337,-78.52549,"Café Seating,Drive-Thru,In Store,Mobile Order and Pay,Nitro Cold Brew,Outdoor Seating,Oven-warmed Food,Redeem Rewards,Starbucks Wi-Fi"
Caesars Virginia,"Caesar's Casino, Danville",Danville,VA,24541,85502-308712,,36.57549,-79.4122,"Blonde Espresso,Mobile Order and Pay,Nitro Cold Brew,Oven-warmed Food"
Danville Mall Pad,"450 Mall Drive, Danville",Danville,VA,24540,11077-251210,+1 434-793-0380,36.59464,-79.42456,"Drive-Thru,In Store,Mobile Order and Pay,Nitro Cold Brew,Oven-warmed Food,Redeem Rewards,Starbucks Wi-Fi"
Target Danville 2407,"236 Coleman St, Danville",Danville,VA,24540,76923-128685,+1 434-799-9950,36.60123,-79.41651,"Blonde Espresso,In Store,Redeem Rewards,Wireless Hot-Spot"
1011 Piney Forest Rd - Danvill,"1011 Piney Forest Rd, Danville",Danville,VA,24540,69601-300480,+1 434-688-0738,36.62186,-79.40512,"Drive-Thru,In Store,Mobile Order and Pay,Nitro Cold Brew,Oven-warmed Food,Redeem Rewards,Starbucks Wi-Fi"
Martinsville - Greensboro Rd,"2840 Greensboro Road, Martinsville",Martinsville,VA,24112,85357-305756,+1 276-229-4469,36.65192,-79.87316,"Café Seating,Drive-Thru,In Store,Mobile Order and Pay,Nitro Cold Brew,Outdoor Seating,Oven-warmed Food,Redeem Rewards,Starbucks Wi-Fi"
"I-95 & Premier Blvd, Exit 173","298 Premier Blvd., Roanoke Rapids",Roanoke Rapids,NC,27870,9272-94777,+1 252-533-5900,36.42491,-77.63228,"Drive-Thru,In Store,Mobile Order and Pay,Nitro Cold Brew,Oven-warmed Food,Redeem Rewards,Starbucks Wi-Fi"
"I-95N & 53E, Emporia, VA","105 E Cloverleaf, Emporia",Emporia,VA,23847,64980-297374,+1 434-427-0023,36.70337,-77.54252,"Drive-Thru,In Store,Mobile Order and Pay,Nitro Cold Brew,Oven-warmed Food,Redeem Rewards,Starbucks Wi-Fi"
Harris Teeter Wake Forest 43,"3638 Rogers Rd, Wake Forest",Wake Forest,NC,27587,48487-263204,+1 919-562-9521,35.94482,-78.5035,"Blonde Espresso,In Store,Mobile Order and Pay,Oven-warmed Food,Redeem Rewards"
Harris Teeter Raleigh 367,"14520 JOHN REX BLVD, Raleigh",Raleigh,NC,27614,54166-285004,+1 919-554-4167,35.94747,-78.54278,"Blonde Espresso,In Store,Mobile Order and Pay,Oven-warmed Food,Redeem Rewards"
Wakefield Commons & US-1,"10760 Wakefield Commons Dr., Raleigh",Raleigh,NC,27614,2970-79142,+1 919-453-1010,35.9428,-78.54094,"Café Seating,Drive-Thru,In Store,Mobile Order and Pay,Nitro Cold Brew,Outdoor Seating,Oven-warmed Food,Redeem Rewards,Starbucks Wi-Fi"
E. Main St & Walmart Plaza,"390 Walmart Plaza, Sylva",Sylva,NC,28779,66412-300334,+1 828-979-0070,35.36144,-83.20222,"Drive-Thru,In Store,Mobile Order and Pay,Nitro Cold Brew,Oven-warmed Food,Redeem Rewards,Starbucks Wi-Fi"
Western Carolina Univ. Brown H,"417 Central Drive, Cullowhee",Cullowhee,NC,28723,51554-248885,+1 828-227-5100,35.30997,-83.17745,"Blonde Espresso,In Store,Nitro Cold Brew,Oven-warmed Food,Starbucks Wi-Fi"
Western Carolina Univ. Courtya,"517 Centennial Drive, Cullowhee",Cullowhee,NC,28723,75441-106538,+1 828-227-5100,35.30983,-83.18359,"Blonde Espresso,In Store,Nitro Cold Brew,Oven-warmed Food,Wireless Hot-Spot"
CHE Harrahs Resort Creekside,"777 Casino Drive, Cherokee",Cherokee,NC,28719,78756-307390,+1 828-497-7777,35.46928,-83.29781,"Blonde Espresso,Café Seating,In Store,Mobile Order and Pay,Nitro Cold Brew,Outdoor Seating,Oven-warmed Food,Wireless Hot-Spot"
CHE Harrahs Convention Lobby,"123 Harrahs Service Drive, Cherokee",Cherokee,NC,28719,66284-293529,+1 828-497-9021,35.46986,-83.3049,"Blonde Espresso,Mobile Order and Pay,Nitro Cold Brew,Oven-warmed Food,Wireless Hot-Spot"
Whiteville,"1211 North JK Powell Boulevard, Whiteville",Whiteville,NC,28472,70141-303224,+1 910-221-1923,34.34449,-78.70957,"Café Seating,Drive-Thru,In Store,Mobile Order and Pay,Nitro Cold Brew,Outdoor Seating,Oven-warmed Food,Redeem Rewards,Starbucks Wi-Fi"
Ingles West Jefferson 82,"60 Ashemont Dr., West Jefferson",West Jefferson,NC,28694,61785-295439,+1 336-246-2804,36.38084,-81.48861,"In Store,Nitro Cold Brew,Oven-warmed Food"
Ingles Franklin 132,"183 Holly Springs Plaza, Franklin",Franklin,NC,28734,71820-305468,+1 828-524-5011,35.18063,-83.35583,"Blonde Espresso,Nitro Cold Brew,Oven-warmed Food,Wireless Hot-Spot"
Ingles Franklin 114,"1281 Georgia Rd., Franklin",Franklin,NC,28734,52140-280280,+1 828-524-9321,35.15767,-83.39274,"Blonde Espresso,In Store,Oven-warmed Food"
Ingles Clayton 488,"176 Highway 441 N, Clayton",Clayton,GA,30525,13152-152234,+1 706-782-3365,34.88024,-83.39654,"In Store,Oven-warmed Food,Wireless Hot-Spot"
Ole Smoky Moonshine Holler,"903 Parkway, Gatlinburg",Gatlinburg,TN,37738,23323-217687,+1 865-325-1545,35.71062,-83.51938,"Blonde Espresso,In Store,Oven-warmed Food"
Food City Gatlinburg 611,"1219 E Parkway-Hwy 321, Gatlinburg",Gatlinburg,TN,37738,65049-298966,+1 865-430-3116,35.72674,-83.48078,"Blonde Espresso,Mobile Order and Pay,Nitro Cold Brew,Oven-warmed Food,Redeem Rewards"
Ingles Burnsville 13,"400 E US Highway 19 E Byp, Burnsville",Burnsville,NC,28714,16319-165208,+1 828-682-6272,35.9143,-82.29071,"In Store,Oven-warmed Food,Wireless Hot-Spot"
Ingles Landrum 205,"1851 Hwy. 14E @ I-26, Landrum",Landrum,SC,29356,19373-201168,+1 864-457-5187,35.12578,-82.22339,"Blonde Espresso,In Store,Oven-warmed Food"
Hwy 25 & Little Texas Rd,"30 Krieger Ct., Travelers Rest",Travelers Rest,SC,29690,63945-298282,+1 864-750-4041,34.95824,-82.43627,"Café Seating,Drive-Thru,In Store,Mobile Order and Pay,Nitro Cold Brew,Outdoor Seating,Oven-warmed Food,Redeem Rewards,Starbucks Wi-Fi"
Ingles Elizabethton 397,"768 W. Elk Ave., Elizabethton",Elizabethton,TN,37643,56678-290455,+1 423-547-9323,36.34858,-82.23719,"Blonde Espresso,In Store,Oven-warmed Food"
